postcode,locality,lat,long
3960,BENNISON,-39.140761,146.360412
3960,BOOLARONG,-39.140761,146.360412
3960,FOSTER,-39.140761,146.360412
3960,FOSTER NORTH,-39.140761,146.360412
3960,GUNYAH,-39.140761,146.360412
3960,MOUNT BEST,-39.140761,146.360412
3960,RUMBUG,-39.140761,146.360412
3960,SHALLOW INLET,-39.140761,146.360412
3960,TIDAL RIVER,-39.140761,146.360412
3960,TURTONS CREEK,-39.140761,146.360412
3960,WILSONS PROMONTORY,-39.140761,146.360412
3960,WONGA,-39.140761,146.360412
3960,WOORARRA WEST,-39.140761,146.360412
3960,YANAKIE,-39.140761,146.360412
3956,WALKERVILLE NORTH,-38.84261489,145.9993437
3238,GLENAIRE,-38.781787,143.429978
3238,HORDERN VALE,-38.781787,143.429978
3238,JOHANNA,-38.781787,143.429978
3238,LAVERS HILL,-38.781787,143.429978
3956,TARWIN LOWER,-38.77338675,145.9119412
3971,SNAKE ISLAND,-38.74476124,146.5237607
3959,FISH CREEK,-38.734636,146.066529
3959,HODDLE,-38.734636,146.066529
3959,SANDY POINT,-38.734636,146.066529
3959,WARATAH BAY,-38.734636,146.066529
3959,WARATAH NORTH,-38.734636,146.066529
3237,AIRE VALLEY,-38.716838,143.474392
3237,BEECH FOREST,-38.716838,143.474392
3237,FERGUSON,-38.716838,143.474392
3237,GELLIBRAND LOWER,-38.716838,143.474392
3237,WATTLE HILL,-38.716838,143.474392
3237,WEEAPROINAH,-38.716838,143.474392
3237,WYELANGTA,-38.716838,143.474392
3237,YUULONG,-38.716838,143.474392
3965,PORT WELSHPOOL,-38.693437,146.472132
3234,SUGARLOAF,-38.69,143.7961
3964,PORT FRANKLIN,-38.685115,146.278804
3233,APOLLO BAY,-38.679417,143.671777
3233,CAPE OTWAY,-38.679417,143.671777
3233,MARENGO,-38.679417,143.671777
3233,PETTICOAT CREEK,-38.679417,143.671777
3233,SKENES CREEK,-38.679417,143.671777
3233,SKENES CREEK NORTH,-38.679417,143.671777
3234,GREY RIVER,-38.6791182,143.832394
3234,WONGARRA,-38.6747,143.7986
3958,BUFFALO,-38.673841,145.987059
3958,BUFFALO CREEK,-38.673841,145.987059
3956,MIDDLE TARWIN,-38.66471384,145.927163
3269,PORT CAMPBELL,-38.660637,143.177116
3269,PRINCETOWN,-38.660637,143.177116
3269,WAARRE,-38.660637,143.177116
3967,HEDLEY,-38.647562,146.507929
3234,KENNETT RIVER,-38.63847255,143.8049086
3971,ALBERTON,-38.631942,146.815723
3971,ALBERTON WEST,-38.631942,146.815723
3971,BALOOK,-38.631942,146.815723
3971,BAROMI,-38.631942,146.815723
3971,CALROSSIE,-38.631942,146.815723
3971,DEVON NORTH,-38.631942,146.815723
3971,GELLIONDALE,-38.631942,146.815723
3971,HIAWATHA,-38.631942,146.815723
3971,HUNTERSTON,-38.631942,146.815723
3971,JACK RIVER,-38.631942,146.815723
3971,LANGSBOROUGH,-38.631942,146.815723
3971,MACKS CREEK,-38.631942,146.815723
3971,MADALYA,-38.631942,146.815723
3971,MANNS BEACH,-38.631942,146.815723
3971,PORT ALBERT,-38.631942,146.815723
3971,ROBERTSONS BEACH,-38.631942,146.815723
3971,STACEYS BRIDGE,-38.631942,146.815723
3971,TARRA VALLEY,-38.631942,146.815723
3971,TARRAVILLE,-38.631942,146.815723
3971,WON WRON,-38.631942,146.815723
3971,YARRAM,-38.631942,146.815723
3966,BINGINWARRI,-38.630568,146.436583
3966,HAZEL PARK,-38.630568,146.436583
3966,WELSHPOOL,-38.630568,146.436583
3996,INVERLOCH,-38.629561,145.745609
3996,POUND CREEK,-38.629561,145.745609
3234,WYE RIVER,-38.62497369,143.8493949
3962,AGNES,-38.60357,146.359804
3962,GRAND RIDGE,-38.60357,146.359804
3962,TOORA,-38.60357,146.359804
3962,TOORA NORTH,-38.60357,146.359804
3962,WONYIP,-38.60357,146.359804
3962,WOORARRA,-38.60357,146.359804
3962,WOORARRA EAST,-38.60357,146.359804
3270,PETERBOROUGH,-38.602117,142.870164
3956,DUMBALK,-38.597018,145.955341
3956,DUMBALK NORTH,-38.597018,145.955341
3956,MEENIYAN,-38.597018,145.955341
3956,MIRBOO SOUTH,-38.597018,145.955341
3956,TARWIN,-38.597018,145.955341
3956,VENUS BAY,-38.597018,145.955341
3956,WALKERVILLE,-38.597018,145.955341
3956,WALKERVILLE SOUTH,-38.597018,145.955341
3957,GRASSY SPUR,-38.589302,146.126718
3957,STONY CREEK,-38.589302,146.126718
3234,SEPARATION CREEK,-38.58813123,143.8732037
3995,ANDERSON,-38.578071,145.630713
3995,ARCHIES CREEK,-38.578071,145.630713
3995,CAPE PATERSON,-38.578071,145.630713
3995,HARMERS HAVEN,-38.578071,145.630713
3995,HICKSBOROUGH,-38.578071,145.630713
3995,KILCUNDA,-38.578071,145.630713
3995,LANCE CREEK,-38.578071,145.630713
3995,NORTH WONTHAGGI,-38.578071,145.630713
3995,POWLETT RIVER,-38.578071,145.630713
3995,SOUTH DUDLEY,-38.578071,145.630713
3995,ST CLAIR,-38.578071,145.630713
3995,WATTLE BANK,-38.578071,145.630713
3995,WONTHAGGI,-38.578071,145.630713
3995,WOOLAMAI,-38.578071,145.630713
3992,BLACKWOOD FOREST,-38.569135,145.534315
3992,DALYSTON,-38.569135,145.534315
3992,RYANSTON,-38.569135,145.534315
3992,WEST CREEK,-38.569135,145.534315
3239,CARLISLE RIVER,-38.564014,143.448102
3239,CHAPPLE VALE,-38.564014,143.448102
3239,GELLIBRAND,-38.564014,143.448102
3239,KENNEDYS CREEK,-38.564014,143.448102
3954,KOONWARRA,-38.550379,145.937973
3232,BIG HILL,-38.544977,143.970167
3232,LORNE,-38.544977,143.970167
3268,AYRFORD,-38.535802,142.908911
3268,BRUCKNELL,-38.535802,142.908911
3268,COORIEMUNGLE,-38.535802,142.908911
3268,COWLEYS CREEK,-38.535802,142.908911
3268,CURDIE VALE,-38.535802,142.908911
3268,CURDIES RIVER,-38.535802,142.908911
3268,HEYTESBURY LOWER,-38.535802,142.908911
3268,NEWFIELD,-38.535802,142.908911
3268,NIRRANDA,-38.535802,142.908911
3268,NIRRANDA EAST,-38.535802,142.908911
3268,NIRRANDA SOUTH,-38.535802,142.908911
3268,NULLAWARRE,-38.535802,142.908911
3268,NULLAWARRE EAST,-38.535802,142.908911
3268,PAARATTE,-38.535802,142.908911
3268,THE COVE,-38.535802,142.908911
3268,TIMBOON,-38.535802,142.908911
3268,TIMBOON WEST,-38.535802,142.908911
3962,CHRISTIES,-38.5328,146.3929
3925,CAPE WOOLAMAI,-38.528213,145.379683
3925,CHURCHILL ISLAND,-38.528213,145.379683
3925,NEWHAVEN,-38.528213,145.379683
3925,SAN REMO,-38.528213,145.379683
3236,FORREST,-38.521903,143.712384
3236,MOUNT SABINE,-38.521903,143.712384
3268,CURDIEVALE,-38.51854992,142.8644071
3874,CARRAJUNG SOUTH,-38.514438,146.836248
3874,CHERRILONG,-38.514438,146.836248
3874,MCLOUGHLINS BEACH,-38.514438,146.836248
3874,WOODSIDE,-38.514438,146.836248
3874,WOODSIDE BEACH,-38.514438,146.836248
3874,WOODSIDE NORTH,-38.514438,146.836248
3991,BASS,-38.483041,145.466781
3922,COWES,-38.482182,145.231974
3922,SILVERLEAVES,-38.482182,145.231974
3922,SMITHS BEACH,-38.482182,145.231974
3922,SUMMERLANDS,-38.482182,145.231974
3922,SUNDERLAND BAY,-38.482182,145.231974
3922,SUNSET STRIP,-38.482182,145.231974
3922,SURF BEACH,-38.482182,145.231974
3922,VENTNOR,-38.482182,145.231974
3922,WIMBLEDON HEIGHTS,-38.482182,145.231974
3231,BIG HILL,-38.47820971,144.0079299
3951,ARAWATA,-38.47372,145.798419
3951,FAIRBANK,-38.47372,145.798419
3951,JUMBUNNA,-38.47372,145.798419
3951,KARDELLA,-38.47372,145.798419
3951,KONGWAK,-38.47372,145.798419
3951,MOYARRA,-38.47372,145.798419
3951,OUTTRIM,-38.47372,145.798419
3951,RANCEBY,-38.47372,145.798419
3870,GRAND RIDGE,-38.47229711,146.3992787
3267,SCOTTS CREEK,-38.466647,143.06073
3923,RHYLL,-38.465552,145.293632
3929,FLINDERS,-38.460965,144.976673
3953,BERRYS CREEK,-38.460127,145.995174
3953,BOOROOL,-38.460127,145.995174
3953,HALLSTON,-38.460127,145.995174
3953,KOOROOMAN,-38.460127,145.995174
3953,LEONGATHA,-38.460127,145.995174
3953,LEONGATHA NORTH,-38.460127,145.995174
3953,LEONGATHA SOUTH,-38.460127,145.995174
3953,MARDAN,-38.460127,145.995174
3953,MOUNT ECCLES,-38.460127,145.995174
3953,MOUNT ECCLES SOUTH,-38.460127,145.995174
3953,NERRENA,-38.460127,145.995174
3953,RUBY,-38.460127,145.995174
3953,TRIDA,-38.460127,145.995174
3953,WILD DOG VALLEY,-38.460127,145.995174
3231,AIREYS INLET,-38.459435,144.106892
3231,EASTERN VIEW,-38.459435,144.106892
3231,FAIRHAVEN,-38.459435,144.106892
3231,MOGGS CREEK,-38.459435,144.106892
3990,GLEN FORBES,-38.455399,145.501279
3249,GERANGAMETE,-38.45296591,143.6947758
3979,ALMURTA,-38.44818,145.591284
3979,GLEN ALVIE,-38.44818,145.591284
3979,KERNOT,-38.44818,145.591284
3979,KORRINE,-38.44818,145.591284
3946,BENA,-38.448155,145.723537
3268,NULLAWARRE NORTH,-38.43795764,142.7964155
3870,BOOLARRA,-38.437946,146.319351
3870,BOOLARRA SOUTH,-38.437946,146.319351
3870,BUDGEREE,-38.437946,146.319351
3870,BUDGEREE EAST,-38.437946,146.319351
3870,JOHNSTONES HILL,-38.437946,146.319351
3870,MIRBOO EAST,-38.437946,146.319351
3950,KARDELLA SOUTH,-38.435217,145.812945
3950,KORUMBURRA,-38.435217,145.812945
3950,KORUMBURRA SOUTH,-38.435217,145.812945
3950,STRZELECKI,-38.435217,145.812945
3950,WHITELAW,-38.435217,145.812945
3235,BOONAH,-38.42875898,143.979689
3939,BONEO,-38.42776,144.900413
3939,CAPE SCHANCK,-38.42776,144.900413
3939,FINGAL,-38.42776,144.900413
3939,ROSEBUD,-38.42776,144.900413
3939,ROSEBUD PLAZA,-38.42776,144.900413
3871,ALLAMBEE RESERVE,-38.42207,146.158866
3871,ALLAMBEE SOUTH,-38.42207,146.158866
3871,DARLIMURLA,-38.42207,146.158866
3871,DELBURN,-38.42207,146.158866
3871,DOLLAR,-38.42207,146.158866
3871,LIMONITE,-38.42207,146.158866
3871,MIRBOO,-38.42207,146.158866
3871,MIRBOO NORTH,-38.42207,146.158866
3871,TARWIN EAST,-38.42207,146.158866
3921,FRENCH ISLAND,-38.419488,145.367079
3921,TANKERTON,-38.419488,145.367079
3921,ELIZABETH ISLAND,-38.41571044,145.3687444
3916,MERRICKS,-38.415199,145.050587
3916,POINT LEO,-38.415199,145.050587
3916,SHOREHAM,-38.415199,145.050587
3235,BENWERRIN,-38.411964,143.924288
3235,DEANS MARSH,-38.411964,143.924288
3235,PENNYROYAL,-38.411964,143.924288
3230,ANGLESEA,-38.409363,144.176397
3928,MAIN RIDGE,-38.407828,144.975131
3266,BULLAHARRE,-38.407094,143.133721
3266,COBDEN,-38.407094,143.133721
3266,COBRICO,-38.407094,143.133721
3266,ELINGAMITE,-38.407094,143.133721
3266,ELINGAMITE NORTH,-38.407094,143.133721
3266,GLENFYNE,-38.407094,143.133721
3266,JANCOURT,-38.407094,143.133721
3266,JANCOURT EAST,-38.407094,143.133721
3266,NAROGHID,-38.407094,143.133721
3266,SIMPSON,-38.407094,143.133721
3953,WOOREEN,-38.40506851,146.0204631
3871,BAROMI,-38.40304542,146.1775109
3941,RYE,-38.396077,144.827203
3941,ST ANDREWS BEACH,-38.396077,144.827203
3941,TOOTGAROOK,-38.396077,144.827203
3844,CARRAJUNG LOWER,-38.39234478,146.7391131
3277,ALLANSFORD,-38.389835,142.660221
3277,MEPUNGA,-38.389835,142.660221
3277,MEPUNGA EAST,-38.389835,142.660221
3277,MEPUNGA WEST,-38.389835,142.660221
3277,NARINGAL,-38.389835,142.660221
3277,NARINGAL EAST,-38.389835,142.660221
3844,MOUNT TASSIE,-38.38862898,146.5618972
3249,ALVIE,-38.388291,143.557159
3249,BALINTORE,-38.388291,143.557159
3249,BARONGAROOK,-38.388291,143.557159
3249,BARONGAROOK WEST,-38.388291,143.557159
3249,BARRAMUNGA,-38.388291,143.557159
3249,CORAGULAC,-38.388291,143.557159
3249,CORUNNUN,-38.388291,143.557159
3249,DREEITE,-38.388291,143.557159
3249,DREEITE SOUTH,-38.388291,143.557159
3249,IRREWARRA,-38.388291,143.557159
3249,IRREWILLIPE,-38.388291,143.557159
3249,IRREWILLIPE EAST,-38.388291,143.557159
3249,KAWARREN,-38.388291,143.557159
3249,LARPENT,-38.388291,143.557159
3249,NALANGIL,-38.388291,143.557159
3249,ONDIT,-38.388291,143.557159
3249,PIRRON YALLOCK,-38.388291,143.557159
3249,POMBORNEIT EAST,-38.388291,143.557159
3249,SWAN MARSH,-38.388291,143.557159
3249,TANYBRYN,-38.388291,143.557159
3249,WARRION,-38.388291,143.557159
3249,WOOL WOOL,-38.388291,143.557159
3249,YEO,-38.388291,143.557159
3249,YEODENE,-38.388291,143.557159
3920,FLINDERS NAVAL DEPOT,-38.38752,145.19304
3920,HMAS CERBERUS,-38.38752,145.19304
3851,GIFFARD,-38.38411874,147.099754
3927,SOMERS,-38.383368,145.153269
3940,ROSEBUD WEST,-38.383367,144.873115
3945,BELLVIEW,-38.381582,145.697053
3945,JEETHO,-38.381582,145.697053
3945,KROWERA,-38.381582,145.697053
3945,LOCH,-38.381582,145.697053
3945,WOODLEIGH,-38.381582,145.697053
3844,CARRAJUNG SOUTH,-38.38123128,146.7999955
3844,CALLIGNEE SOUTH,-38.38048482,146.6035417
3280,DENNINGTON,-38.37884,142.482889
3280,MINJAH,-38.37884,142.482889
3280,WARRNAMBOOL,-38.37884,142.482889
3280,WARRNAMBOOL EAST,-38.37884,142.482889
3280,WARRNAMBOOL WEST,-38.37884,142.482889
3937,RED HILL,-38.373694,145.01994
3937,RED HILL SOUTH,-38.373694,145.01994
3940,CAPEL SOUND,-38.37363083,144.8754149
3942,BLAIRGOWRIE,-38.367874,144.768301
8001,MELBOURNE,-38.365017,144.76592
3869,JUMBUK,-38.364689,146.359836
3869,YINNAR,-38.364689,146.359836
3869,YINNAR SOUTH,-38.364689,146.359836
3243,BARWON DOWNS,-38.364034,143.82588
3243,GERANGAMETE,-38.364034,143.82588
3243,MURROON,-38.364034,143.82588
3243,WARNCOORT,-38.364034,143.82588
3243,WHOOREL,-38.364034,143.82588
3926,BALNARRING,-38.355231,145.094502
3926,BALNARRING BEACH,-38.355231,145.094502
3926,MERRICKS BEACH,-38.355231,145.094502
3926,MERRICKS NORTH,-38.355231,145.094502
3938,MCCRAE,-38.354321,144.931834
3919,CRIB POINT,-38.352327,145.199777
3242,BIRREGURRA,-38.346704,143.740326
3943,SORRENTO,-38.345527,144.739101
3918,BITTERN,-38.339871,145.155546
3936,ARTHURS SEAT,-38.326447,145.007626
3936,DROMANA,-38.326447,145.007626
3936,SAFETY BEACH,-38.326447,145.007626
3847,WILLUNG SOUTH,-38.32561417,146.8251888
3944,PORTSEA,-38.321871,144.692708
3844,BLACKWARRY,-38.316869,146.607101
3844,CALLIGNEE,-38.316869,146.607101
3844,CALLIGNEE NORTH,-38.316869,146.607101
3844,CARRAJUNG,-38.316869,146.607101
3844,FLYNN,-38.316869,146.607101
3844,FLYNNS CREEK,-38.316869,146.607101
3844,KOORNALLA,-38.316869,146.607101
3844,LOY YANG,-38.316869,146.607101
3844,TRARALGON,-38.316869,146.607101
3844,TRARALGON EAST,-38.316869,146.607101
3844,TRARALGON SOUTH,-38.316869,146.607101
3844,TYERS,-38.316869,146.607101
3844,WILLUNG SOUTH,-38.316869,146.607101
3842,CHURCHILL,-38.315452,146.414358
3988,MOUNTAIN VIEW,-38.313447,145.811863
3988,POOWONG,-38.313447,145.811863
3988,POOWONG EAST,-38.313447,145.811863
3988,POOWONG NORTH,-38.313447,145.811863
3283,CROSSLEY,-38.313434,142.328761
3283,KILLARNEY,-38.313434,142.328761
3283,KIRKSTALL,-38.313434,142.328761
3283,SOUTHERN CROSS,-38.313434,142.328761
3283,TARRONE,-38.313434,142.328761
3283,TOWER HILL,-38.313434,142.328761
3283,WARRONG,-38.313434,142.328761
3283,WILLATOOK,-38.313434,142.328761
3283,YANGERY,-38.313434,142.328761
3283,YARPTURK,-38.313434,142.328761
3984,ADAMS ESTATE,-38.312647,145.563979
3984,CALDERMEADE,-38.312647,145.563979
3984,CORINELLA,-38.312647,145.563979
3984,CORONET BAY,-38.312647,145.563979
3984,GRANTVILLE,-38.312647,145.563979
3984,JAM JERRUP,-38.312647,145.563979
3984,LANG LANG,-38.312647,145.563979
3984,LANG LANG EAST,-38.312647,145.563979
3984,MONOMEITH,-38.312647,145.563979
3984,PIONEER BAY,-38.312647,145.563979
3984,QUEENSFERRY,-38.312647,145.563979
3984,TENBY POINT,-38.312647,145.563979
3984,THE GURDIES,-38.312647,145.563979
3250,COLAC,-38.311513,143.584742
3250,COLAC EAST,-38.311513,143.584742
3250,COLAC WEST,-38.311513,143.584742
3250,ELLIMINYT,-38.311513,143.584742
3987,NYORA,-38.309048,145.689142
3228,BELLBRAE,-38.307545,144.299978
3228,BELLS BEACH,-38.307545,144.299978
3228,JAN JUC,-38.307545,144.299978
3228,TORQUAY,-38.307545,144.299978
3915,HASTINGS,-38.305806,145.136622
3915,TUERONG,-38.305806,145.136622
3275,MAILER FLAT,-38.301794,142.457611
3275,MAILORS FLAT,-38.301794,142.457611
3873,GORMANDALE,-38.298267,146.708775
3278,PURNIM WEST,-38.29668931,142.554533
3835,THORPDALE,-38.290637,146.175271
3285,CODRINGTON,-38.290199,142.058916
3285,NARRAWONG,-38.290199,142.058916
3285,ROSEBROOK,-38.290199,142.058916
3285,ST HELENS,-38.290199,142.058916
3285,TOOLONG,-38.290199,142.058916
3285,TYRENDARRA,-38.290199,142.058916
3285,TYRENDARRA EAST,-38.290199,142.058916
3285,YAMBUK,-38.290199,142.058916
3254,COROROOKE,-38.289636,143.52228
3934,MOUNT MARTHA,-38.2783,145.031598
3278,PURNIM,-38.278013,142.624719
3225,POINT LONSDALE,-38.271074,144.614191
3225,QUEENSCLIFF,-38.271074,144.614191
3225,SWAN BAY,-38.271074,144.614191
3225,SWAN ISLAND,-38.271074,144.614191
3284,ORFORD,-38.270398,142.119266
3284,PORT FAIRY,-38.270398,142.119266
3217,FRESHWATER CREEK,-38.27029834,144.249583
3282,ILLOWA,-38.268176,142.351658
3282,KOROIT,-38.268176,142.351658
3226,OCEAN GROVE,-38.263811,144.523761
3227,BARWON HEADS,-38.263052,144.40814
3227,BREAMLEA,-38.263052,144.40814
3227,CONNEWARRE,-38.263052,144.40814
3240,BUCKLEY,-38.263005,144.174411
3240,GHERANG,-38.263005,144.174411
3240,MODEWARRE,-38.263005,144.174411
3240,MORIAC,-38.263005,144.174411
3240,MOUNT MORIAC,-38.263005,144.174411
3240,PARAPARAP,-38.263005,144.174411
3913,TYABB,-38.262273,145.166426
3933,MOOROODUC,-38.261168,145.096992
3821,TORWOOD,-38.25783442,145.8742873
3281,BUSHFIELD,-38.254454,142.630109
3281,GRASSMERE,-38.254454,142.630109
3281,WINSLOW,-38.254454,142.630109
3281,WOODFORD,-38.254454,142.630109
3217,MOUNT DUNEED,-38.24983474,144.3127944
3824,CHILDERS,-38.245649,146.16397
3824,NARRACAN,-38.245649,146.16397
3824,THORPDALE SOUTH,-38.245649,146.16397
3824,TRAFALGAR,-38.245649,146.16397
3824,TRAFALGAR EAST,-38.245649,146.16397
3824,TRAFALGAR SOUTH,-38.245649,146.16397
3840,DRIFFIELD,-38.245215,146.424457
3840,HAZELWOOD,-38.245215,146.424457
3840,HAZELWOOD NORTH,-38.245215,146.424457
3840,HAZELWOOD SOUTH,-38.245215,146.424457
3840,JEERALANG,-38.245215,146.424457
3840,JEERALANG JUNCTION,-38.245215,146.424457
3840,MARYVALE,-38.245215,146.424457
3840,MID VALLEY,-38.245215,146.424457
3840,MORWELL,-38.245215,146.424457
3840,MORWELL EAST,-38.245215,146.424457
3840,MORWELL UPPER,-38.245215,146.424457
3305,ALLESTREE,-38.235475,141.437227
3305,BOLWARRA,-38.235475,141.437227
3305,CAPE BRIDGEWATER,-38.235475,141.437227
3305,CASHMORE,-38.235475,141.437227
3305,DUTTON WAY,-38.235475,141.437227
3305,GORAE,-38.235475,141.437227
3305,GORAE WEST,-38.235475,141.437227
3305,HEATHMERE,-38.235475,141.437227
3305,MOUNT RICHMOND,-38.235475,141.437227
3305,PORTLAND,-38.235475,141.437227
3305,PORTLAND NORTH,-38.235475,141.437227
3305,PORTLAND WEST,-38.235475,141.437227
3217,ARMSTRONG CREEK,-38.23413976,144.3707843
3264,TERANG,-38.232443,142.884394
3931,MORNINGTON,-38.230038,145.049503
3222,WALLINGTON,-38.22638039,144.5118946
3850,GIFFARD,-38.224191,147.106181
3850,GUTHRIDGE,-38.224191,147.106181
3850,SALE,-38.224191,147.106181
3850,SALE NORTH,-38.224191,147.106181
3850,WURRUK,-38.224191,147.106181
3912,PEARCEDALE,-38.217991,145.227373
3912,SOMERVILLE,-38.217991,145.227373
3216,BELMONT,-38.215906,144.334005
3216,FRESHWATER CREEK,-38.215906,144.334005
3216,GROVEDALE,-38.215906,144.334005
3216,GROVEDALE EAST,-38.215906,144.334005
3216,HIGHTON,-38.215906,144.334005
3216,MARSHALL,-38.215906,144.334005
3216,MOUNT DUNEED,-38.215906,144.334005
3216,WANDANA HEIGHTS,-38.215906,144.334005
3216,WAURN PONDS,-38.215906,144.334005
3217,CHARLEMONT,-38.21558906,144.3683696
3279,BALLANGEICH,-38.214555,142.657483
3279,WANGOOM,-38.214555,142.657483
3823,ALLAMBEE,-38.210382,146.065656
3823,YARRAGON,-38.210382,146.065656
3823,YARRAGON SOUTH,-38.210382,146.065656
3222,CLIFTON SPRINGS,-38.209921,144.572989
3222,CURLEWIS,-38.209921,144.572989
3222,DRYSDALE,-38.209921,144.572989
3222,MANNERIM,-38.209921,144.572989
3222,MARCUS HILL,-38.209921,144.572989
3260,BOOKAAR,-38.209584,143.244766
3260,BOSTOCKS CREEK,-38.209584,143.244766
3260,BUNGADOR,-38.209584,143.244766
3260,CAMPERDOWN,-38.209584,143.244766
3260,CARPENDEIT,-38.209584,143.244766
3260,CHOCOLYN,-38.209584,143.244766
3260,GNOTUK,-38.209584,143.244766
3260,KARIAH,-38.209584,143.244766
3260,KOALLAH,-38.209584,143.244766
3260,LESLIE MANOR,-38.209584,143.244766
3260,POMBORNEIT,-38.209584,143.244766
3260,POMBORNEIT NORTH,-38.209584,143.244766
3260,SKIBO,-38.209584,143.244766
3260,SOUTH PURRUMBETE,-38.209584,143.244766
3260,STONYFORD,-38.209584,143.244766
3260,TANDAROOK,-38.209584,143.244766
3260,TESBURY,-38.209584,143.244766
3260,WEERITE,-38.209584,143.244766
3820,BONA VISTA,-38.207476,145.922212
3820,LILLICO,-38.207476,145.922212
3820,WARRAGUL,-38.207476,145.922212
3981,BAYLES,-38.207298,145.575
3981,CATANI,-38.207298,145.575
3981,DALMORE,-38.207298,145.575
3981,HEATH HILL,-38.207298,145.575
3981,KOO WEE RUP,-38.207298,145.575
3981,KOO WEE RUP NORTH,-38.207298,145.575
3981,YANNATHAN,-38.207298,145.575
3980,BLIND BIGHT,-38.204448,145.356937
3980,TOORADIN,-38.204448,145.356937
3980,WARNEET,-38.204448,145.356937
3241,BAMBRA,-38.20363,143.892824
3241,OMBERSLEY,-38.20363,143.892824
3241,WENSLEYDALE,-38.20363,143.892824
3241,WINCHELSEA,-38.20363,143.892824
3241,WINCHELSEA SOUTH,-38.20363,143.892824
3241,WURDIBOLUC,-38.20363,143.892824
3224,LEOPOLD,-38.202905,144.462401
3911,BAXTER,-38.196908,145.169556
3911,LANGWARRIN SOUTH,-38.196908,145.169556
3661,SEYMOUR,-38.195993,146.535346
3930,KUNYUNG,-38.195017,145.093743
3930,MOUNT ELIZA,-38.195017,145.093743
3822,CLOVERLEA,-38.194379,145.989901
3822,DARNUM,-38.194379,145.989901
3822,GAINSBOROUGH,-38.194379,145.989901
8010,LAW COURTS,-38.185857,146.293728
3304,BESSIEBELLE,-38.182084,141.952156
3304,DARTMOOR,-38.182084,141.952156
3304,DRIK DRIK,-38.182084,141.952156
3304,DRUMBORG,-38.182084,141.952156
3304,GREENWALD,-38.182084,141.952156
3304,HEYWOOD,-38.182084,141.952156
3304,HOMERTON,-38.182084,141.952156
3304,LYONS,-38.182084,141.952156
3304,MILLTOWN,-38.182084,141.952156
3304,MUMBANNAR,-38.182084,141.952156
3304,MYAMYN,-38.182084,141.952156
3304,WINNAP,-38.182084,141.952156
3221,ANAKIE,-38.181608,144.427419
3221,BARRABOOL,-38.181608,144.427419
3221,BATESFORD,-38.181608,144.427419
3221,BELLARINE,-38.181608,144.427419
3221,CERES,-38.181608,144.427419
3221,FYANSFORD,-38.181608,144.427419
3221,GEELONG MC,-38.181608,144.427419
3221,GNARWARRE,-38.181608,144.427419
3221,GREY RIVER,-38.181608,144.427419
3221,KENNETT RIVER,-38.181608,144.427419
3221,LOVELY BANKS,-38.181608,144.427419
3221,MOOLAP,-38.181608,144.427419
3221,MOORABOOL,-38.181608,144.427419
3221,MURGHEBOLUC,-38.181608,144.427419
3221,SEPARATION CREEK,-38.181608,144.427419
3221,STAUGHTON VALE,-38.181608,144.427419
3221,STONEHAVEN,-38.181608,144.427419
3221,SUGARLOAF,-38.181608,144.427419
3221,WALLINGTON,-38.181608,144.427419
3221,WONGARRA,-38.181608,144.427419
3221,WYE RIVER,-38.181608,144.427419
3276,WOOLSTHORPE,-38.180923,142.409105
3224,MOOLAP,-38.17988326,144.4248188
3265,BOORCAN,-38.178237,142.952372
3265,CUDGEE,-38.178237,142.952372
3265,DIXIE,-38.178237,142.952372
3265,ECKLIN SOUTH,-38.178237,142.952372
3265,ELLERSLIE,-38.178237,142.952372
3265,FRAMLINGHAM,-38.178237,142.952372
3265,FRAMLINGHAM EAST,-38.178237,142.952372
3265,GARVOC,-38.178237,142.952372
3265,GLENORMISTON NORTH,-38.178237,142.952372
3265,GLENORMISTON SOUTH,-38.178237,142.952372
3265,KOLORA,-38.178237,142.952372
3265,LAANG,-38.178237,142.952372
3265,NOORAT,-38.178237,142.952372
3265,NOORAT EAST,-38.178237,142.952372
3265,PANMURE,-38.178237,142.952372
3265,TAROON,-38.178237,142.952372
3265,THE SISTERS,-38.178237,142.952372
3219,BREAKWATER,-38.17277,144.389533
3219,EAST GEELONG,-38.17277,144.389533
3219,NEWCOMB,-38.17277,144.389533
3219,ST ALBANS PARK,-38.17277,144.389533
3219,THOMSON,-38.17277,144.389533
3219,WHITTINGTON,-38.17277,144.389533
3847,HIAMDALE,-38.166213,146.772991
3847,NAMBROK,-38.166213,146.772991
3847,ROSEDALE,-38.166213,146.772991
3847,WILLUNG,-38.166213,146.772991
3199,FRANKSTON,-38.162578,145.135961
3199,FRANKSTON EAST,-38.162578,145.135961
3199,FRANKSTON HEIGHTS,-38.162578,145.135961
3199,FRANKSTON SOUTH,-38.162578,145.135961
3199,KARINGAL,-38.162578,145.135961
3199,KARINGAL CENTRE,-38.162578,145.135961
3220,BAREENA,-38.157038,144.34652
3220,GEELONG,-38.157038,144.34652
3220,NEWTOWN,-38.157038,144.34652
3220,SOUTH GEELONG,-38.157038,144.34652
3910,LANGWARRIN,-38.156369,145.198328
3251,BEEAC,-38.155186,143.648479
3251,CUNDARE NORTH,-38.155186,143.648479
3251,EURACK,-38.155186,143.648479
3251,WEERING,-38.155186,143.648479
3223,INDENTED HEAD,-38.147989,144.668477
3223,PORTARLINGTON,-38.147989,144.668477
3223,ST LEONARDS,-38.147989,144.668477
3977,BOTANIC RIDGE,-38.1466398,145.2695101
3251,CUNDARE,-38.146253,143.5923322
3218,GEELONG WEST,-38.138728,144.330986
3218,HERNE HILL,-38.138728,144.330986
3218,MANIFOLD HEIGHTS,-38.138728,144.330986
3223,BELLARINE,-38.13622989,144.6217267
3977,CANNONS CREEK,-38.135253,145.268888
3977,CRANBOURNE,-38.135253,145.268888
3977,CRANBOURNE EAST,-38.135253,145.268888
3977,CRANBOURNE NORTH,-38.135253,145.268888
3977,CRANBOURNE SOUTH,-38.135253,145.268888
3977,CRANBOURNE WEST,-38.135253,145.268888
3977,DEVON MEADOWS,-38.135253,145.268888
3977,FIVE WAYS,-38.135253,145.268888
3977,JUNCTION VILLAGE,-38.135253,145.268888
3977,SKYE,-38.135253,145.268888
3978,CARDINIA,-38.135009,145.384606
3978,CLYDE,-38.135009,145.384606
3978,CLYDE NORTH,-38.135009,145.384606
3218,FYANSFORD,-38.13028025,144.2894883
3200,FRANKSTON NORTH,-38.126458,145.157574
3200,PINES FOREST,-38.126458,145.157574
3854,GLENGARRY,-38.12413,146.596877
3854,GLENGARRY NORTH,-38.12413,146.596877
3854,GLENGARRY WEST,-38.12413,146.596877
3218,STONEHAVEN,-38.1220442,144.223441
3301,BOCHARA,-38.118855,142.034141
3301,BROADWATER,-38.118855,142.034141
3301,BUCKLEY SWAMP,-38.118855,142.034141
3301,BYADUK,-38.118855,142.034141
3301,CROXTON EAST,-38.118855,142.034141
3301,HENSLEY PARK,-38.118855,142.034141
3301,MORGIANA,-38.118855,142.034141
3301,MOUNT NAPIER,-38.118855,142.034141
3301,STRATHKELLAR,-38.118855,142.034141
3301,TAHARA,-38.118855,142.034141
3301,TARRINGTON,-38.118855,142.034141
3301,WANNON,-38.118855,142.034141
3301,WARRAYURE,-38.118855,142.034141
3301,YATCHAW,-38.118855,142.034141
3301,YULECART,-38.118855,142.034141
3215,BELL PARK,-38.111002,144.33452
3215,BELL POST HILL,-38.111002,144.33452
3215,DRUMCONDRA,-38.111002,144.33452
3215,GEELONG NORTH,-38.111002,144.33452
3215,HAMLYN HEIGHTS,-38.111002,144.33452
3215,NORTH GEELONG,-38.111002,144.33452
3215,RIPPLESIDE,-38.111002,144.33452
3814,CORA LYNN,-38.10718,145.669112
3814,GARFIELD,-38.10718,145.669112
3814,GARFIELD NORTH,-38.10718,145.669112
3814,VERVALE,-38.10718,145.669112
3852,EAST SALE RAAF,-38.106731,147.134356
3852,SALE EAST RAAF,-38.106731,147.134356
3852,EAST SALE,-38.10361729,147.1414369
3198,BELVEDERE PARK,-38.103194,145.137811
3198,SEAFORD,-38.103194,145.137811
3818,ATHLONE,-38.096289,145.867337
3818,DROUIN,-38.096289,145.867337
3818,DROUIN EAST,-38.096289,145.867337
3818,DROUIN SOUTH,-38.096289,145.867337
3818,DROUIN WEST,-38.096289,145.867337
3818,HALLORA,-38.096289,145.867337
3818,JINDIVICK,-38.096289,145.867337
3818,RIPPLEBROOK,-38.096289,145.867337
3818,TARAGO,-38.096289,145.867337
3853,SALE,-38.095569,146.059953
3218,MURGHEBOLUC,-38.09450396,144.1418215
3201,CARRUM DOWNS,-38.092874,145.177905
3213,BATESFORD,-38.091,144.2779
3321,HESSE,-38.087758,143.88056
3321,INVERLEIGH,-38.087758,143.88056
3321,WINGEEL,-38.087758,143.88056
3825,THALLOO,-38.08561743,146.3086546
3214,CORIO,-38.084781,144.352385
3214,NORLANE,-38.084781,144.352385
3214,NORTH SHORE,-38.084781,144.352385
3821,BRAVINGTON,-38.08301804,145.9226127
3977,SANDHURST,-38.08209438,145.2086871
3197,CARRUM,-38.072748,145.134111
3197,PATTERSON LAKES,-38.072748,145.134111
3812,MARYKNOLL,-38.070135,145.565304
3812,NAR NAR GOON,-38.070135,145.565304
3812,NAR NAR GOON NORTH,-38.070135,145.565304
3809,OFFICER,-38.069094,145.406887
3809,OFFICER SOUTH,-38.069094,145.406887
3813,TYNONG,-38.064252,145.634339
3813,TYNONG NORTH,-38.064252,145.634339
3856,TOONGABBIE,-38.063907,146.672206
3287,HAWKESDALE,-38.059868,142.31953
3287,MINHAMITE,-38.059868,142.31953
3276,MINJAH,-38.0538178,142.481806
3975,LYNBROOK,-38.05354,145.231114
3975,LYNDHURST,-38.05354,145.231114
3862,HOLLANDS LANDING,-38.04993542,147.4640889
3331,BANNOCKBURN,-38.049195,144.194625
3331,GHERINGHAP,-38.049195,144.194625
3331,MAUDE,-38.049195,144.194625
3331,RUSSELLS BRIDGE,-38.049195,144.194625
3331,SHE OAKS,-38.049195,144.194625
3331,STEIGLITZ,-38.049195,144.194625
3331,SUTHERLANDS CREEK,-38.049195,144.194625
3825,BOOLA,-38.0485774,146.4605642
3807,BEACONSFIELD,-38.048316,145.371635
3807,GUYS HILL,-38.048316,145.371635
3810,PAKENHAM,-38.04658,145.472514
3810,PAKENHAM SOUTH,-38.04658,145.472514
3810,PAKENHAM UPPER,-38.04658,145.472514
3810,RYTHDALE,-38.04658,145.472514
3196,BONBEACH,-38.046479,145.122762
3196,CHELSEA,-38.046479,145.122762
3196,CHELSEA HEIGHTS,-38.046479,145.122762
3196,EDITHVALE,-38.046479,145.122762
3329,BARUNAH PLAINS,-38.04453757,143.7726902
3976,HAMPTON PARK,-38.043995,145.264296
3816,LABERTOUCHE,-38.043542,145.787991
3816,LONGWARRY,-38.043542,145.787991
3816,LONGWARRY NORTH,-38.043542,145.787991
3816,MODELLA,-38.043542,145.787991
3213,LOVELY BANKS,-38.04070313,144.3223578
3212,AVALON,-38.039958,144.422666
3212,LARA,-38.039958,144.422666
3212,POINT WILSON,-38.039958,144.422666
3292,NELSON,-38.038873,141.051987
3213,MOORABOOL,-38.038,144.2771
3805,FOUNTAIN GATE,-38.037026,145.304198
3805,NARRE WARREN,-38.037026,145.304198
3805,NARRE WARREN SOUTH,-38.037026,145.304198
3286,KNEBSWORTH,-38.036038,141.963223
3286,MACARTHUR,-38.036038,141.963223
3286,RIPPONHURST,-38.036038,141.963223
3851,AIRLY,-38.035548,147.084398
3851,BUNDALAGUAH,-38.035548,147.084398
3851,CLYDEBANK,-38.035548,147.084398
3851,COBAINS,-38.035548,147.084398
3851,DARRIMAN,-38.035548,147.084398
3851,DUTSON,-38.035548,147.084398
3851,DUTSON DOWNS,-38.035548,147.084398
3851,FLAMINGO BEACH,-38.035548,147.084398
3851,FULHAM,-38.035548,147.084398
3851,GIFFARD WEST,-38.035548,147.084398
3851,GLOMAR BEACH,-38.035548,147.084398
3851,GOLDEN BEACH,-38.035548,147.084398
3851,KILMANY,-38.035548,147.084398
3851,LAKE WELLINGTON,-38.035548,147.084398
3851,LOCH SPORT,-38.035548,147.084398
3851,LONGFORD,-38.035548,147.084398
3851,MONTGOMERY,-38.035548,147.084398
3851,MYRTLEBANK,-38.035548,147.084398
3851,PARADISE BEACH,-38.035548,147.084398
3851,PEARSONDALE,-38.035548,147.084398
3851,SEACOMBE,-38.035548,147.084398
3851,SEASPRAY,-38.035548,147.084398
3851,SOMERTON PARK,-38.035548,147.084398
3851,STRADBROKE,-38.035548,147.084398
3851,THE HEART,-38.035548,147.084398
3851,THE HONEYSUCKLES,-38.035548,147.084398
3323,BERRYBANK,-38.026314,143.520934
3323,DUVERNEY,-38.026314,143.520934
3323,FOXHOW,-38.026314,143.520934
3806,BERWICK,-38.025018,145.349488
3806,HARKAWAY,-38.025018,145.349488
3164,DANDENONG SOUTH,-38.02243,145.23738
3322,CRESSY,-38.021333,143.743305
3328,TEESDALE,-38.018664,144.043058
3857,COWWARR,-38.018616,146.694894
3175,BANGHOLME,-38.016114,145.208504
3175,DANDENONG,-38.016114,145.208504
3175,DANDENONG EAST,-38.016114,145.208504
3175,DANDENONG NORTH,-38.016114,145.208504
3175,DANDENONG SOUTH,-38.016114,145.208504
3175,DUNEARN,-38.016114,145.208504
8785,DANDENONG,-38.016114,145.208504
3815,BUNYIP,-38.01378,145.726311
3815,BUNYIP NORTH,-38.01378,145.726311
3815,IONA,-38.01378,145.726311
3815,TONIMBUK,-38.01378,145.726311
3803,HALLAM,-38.009435,145.265524
3195,ASPENDALE,-38.007024,145.104105
3195,ASPENDALE GARDENS,-38.007024,145.104105
3195,BRAESIDE,-38.007024,145.104105
3195,MORDIALLOC,-38.007024,145.104105
3195,MORDIALLOC NORTH,-38.007024,145.104105
3195,PARKDALE,-38.007024,145.104105
3195,WATERWAYS,-38.007024,145.104105
3173,KEYSBOROUGH,-38.006771,145.164863
3808,BEACONSFIELD UPPER,-38.002518,145.42327
3808,DEWHURST,-38.002518,145.42327
3831,NEERIM,-37.993258,146.013136
3831,NEERIM EAST,-37.993258,146.013136
3831,NEERIM SOUTH,-37.993258,146.013136
3289,GERRIGERRUP,-37.99193127,142.1980995
3177,DOVETON,-37.990985,145.237462
3177,EUMEMMERRING,-37.990985,145.237462
3286,WARRABKOOK,-37.98614494,142.0716061
3194,MENTONE,-37.985059,145.067356
3194,MENTONE EAST,-37.985059,145.067356
3194,MOORABBIN AIRPORT,-37.985059,145.067356
3329,BARUNAH PARK,-37.983701,143.908716
3329,SHELFORD,-37.983701,143.908716
3272,MORTLAKE,-37.982186,142.853634
3272,WOORNDOO,-37.982186,142.853634
3273,HEXHAM,-37.981249,142.660643
3303,BREAKAWAY CREEK,-37.980868,141.789606
3303,CONDAH,-37.980868,141.789606
3303,CONDAH SWAMP,-37.980868,141.789606
3303,HOTSPUR,-37.980868,141.789606
3303,LAKE CONDAH,-37.980868,141.789606
3303,WALLACEDALE,-37.980868,141.789606
3804,NARRE WARREN EAST,-37.980059,145.325994
3804,NARRE WARREN NORTH,-37.980059,145.325994
3825,ABERFELDY,-37.978862,146.342932
3825,AMOR,-37.978862,146.342932
3825,CARINGAL,-37.978862,146.342932
3825,COALVILLE,-37.978862,146.342932
3825,COOPERS CREEK,-37.978862,146.342932
3825,ERICA,-37.978862,146.342932
3825,FUMINA,-37.978862,146.342932
3825,FUMINA SOUTH,-37.978862,146.342932
3825,HERNES OAK,-37.978862,146.342932
3825,HILL END,-37.978862,146.342932
3825,JACOB CREEK,-37.978862,146.342932
3825,MOE,-37.978862,146.342932
3825,MOE SOUTH,-37.978862,146.342932
3825,MOONDARRA,-37.978862,146.342932
3825,NEWBOROUGH,-37.978862,146.342932
3825,NEWBOROUGH EAST,-37.978862,146.342932
3825,RAWSON,-37.978862,146.342932
3825,TANJIL,-37.978862,146.342932
3825,TANJIL SOUTH,-37.978862,146.342932
3825,THALOO,-37.978862,146.342932
3825,THOMSON,-37.978862,146.342932
3825,WALHALLA,-37.978862,146.342932
3825,WESTBURY,-37.978862,146.342932
3825,WILLOW GROVE,-37.978862,146.342932
3825,YALLOURN,-37.978862,146.342932
3825,YALLOURN NORTH,-37.978862,146.342932
3193,BEAUMARIS,-37.978698,145.031561
3193,BLACK ROCK,-37.978698,145.031561
3193,BLACK ROCK NORTH,-37.978698,145.031561
3193,CROMER,-37.978698,145.031561
3172,DINGLEY VILLAGE,-37.975981,145.13465
3172,SPRINGVALE SOUTH,-37.975981,145.13465
3502,MILDURA,-37.972887,145.25835
3802,ENDEAVOUR HILLS,-37.971763,145.255599
3286,CONDAH SWAMP,-37.9711005,141.8361176
3174,NOBLE PARK,-37.966218,145.17877
3174,NOBLE PARK EAST,-37.966218,145.17877
3174,NOBLE PARK NORTH,-37.966218,145.17877
3192,CHELTENHAM,-37.965655,145.0623
3192,CHELTENHAM EAST,-37.965655,145.0623
3192,CHELTENHAM NORTH,-37.965655,145.0623
3192,SOUTHLAND CENTRE,-37.965655,145.0623
3274,CARAMUT,-37.960778,142.478612
3202,HEATHERTON,-37.960555,145.092698
3191,SANDRINGHAM,-37.956585,145.013472
3190,HIGHETT,-37.951394,145.038147
3875,BANKSIA PENINSULA,-37.94900419,147.63201
3783,GEMBROOK,-37.947379,145.596576
3169,CLARINDA,-37.945149,145.115271
3169,CLAYTON SOUTH,-37.945149,145.115271
3171,SANDOWN VILLAGE,-37.944608,145.156783
3171,SPRINGVALE,-37.944608,145.156783
3332,LETHBRIDGE,-37.944446,144.097178
3211,LITTLE RIVER,-37.943586,144.498479
3189,MOORABBIN,-37.942021,145.047802
3189,MOORABBIN EAST,-37.942021,145.047802
3189,WISHART,-37.942021,145.047802
3324,LISMORE,-37.941939,143.375414
3324,MINGAY,-37.941939,143.375414
3324,MOUNT BUTE,-37.941939,143.375414
3213,ANAKIE,-37.9406,144.2894
3188,HAMPTON,-37.938889,145.007238
3188,HAMPTON EAST,-37.938889,145.007238
3188,HAMPTON NORTH,-37.938889,145.007238
3781,COCKATOO,-37.938471,145.487862
3781,MOUNT BURNETT,-37.938471,145.487862
3781,NANGANA,-37.938471,145.487862
3833,GENTLE ANNIE,-37.93840381,145.8366168
3782,AVONSLEIGH,-37.938068,145.433024
3782,CLEMATIS,-37.938068,145.433024
3782,EMERALD,-37.938068,145.433024
3782,MACCLESFIELD,-37.938068,145.433024
3160,BELGRAVE,-37.935097,145.350821
3160,BELGRAVE HEIGHTS,-37.935097,145.350821
3160,BELGRAVE SOUTH,-37.935097,145.350821
3160,TECOMA,-37.935097,145.350821
3825,WALHALLA EAST,-37.9325509,146.5807798
3027,LAVERTON RAAF,-37.932419,144.754147
3027,WILLIAMS RAAF,-37.932419,144.754147
3187,BRIGHTON EAST,-37.925371,145.013593
3187,NORTH ROAD,-37.925371,145.013593
3178,ROWVILLE,-37.924431,145.241589
3167,OAKLEIGH SOUTH,-37.923345,145.087614
3165,BENTLEIGH EAST,-37.922369,145.059426
3165,COATESVILLE,-37.922369,145.059426
3159,MENZIES CREEK,-37.921894,145.3892
3159,SELBY,-37.921894,145.3892
3170,MULGRAVE,-37.920945,145.167859
3170,WAVERLEY GARDENS,-37.920945,145.167859
3821,BRANDY CREEK,-37.919937,145.945214
3821,BULN BULN,-37.919937,145.945214
3821,BULN BULN EAST,-37.919937,145.945214
3821,CROSSOVER,-37.919937,145.945214
3821,ELLINBANK,-37.919937,145.945214
3821,FERNDALE,-37.919937,145.945214
3821,LARDNER,-37.919937,145.945214
3821,NAYOOK,-37.919937,145.945214
3821,NEERIM JUNCTION,-37.919937,145.945214
3821,NEERIM NORTH,-37.919937,145.945214
3821,NILMA,-37.919937,145.945214
3821,NILMA NORTH,-37.919937,145.945214
3821,ROKEBY,-37.919937,145.945214
3821,SEAVIEW,-37.919937,145.945214
3821,SHADY CREEK,-37.919937,145.945214
3821,TETOORA ROAD,-37.919937,145.945214
3821,WARRAGUL SOUTH,-37.919937,145.945214
3821,WARRAGUL WEST,-37.919937,145.945214
3832,NAYOOK,-37.919937,145.945214
3832,NEERIM JUNCTION,-37.919937,145.945214
3832,NEERIM NORTH,-37.919937,145.945214
3330,ROKEWOOD,-37.918437,143.758576
3156,FERNTREE GULLY,-37.917932,145.292895
3156,LYSTERFIELD,-37.917932,145.292895
3156,LYSTERFIELD SOUTH,-37.917932,145.292895
3156,MOUNTAIN GATE,-37.917932,145.292895
3156,UPPER FERNTREE GULLY,-37.917932,145.292895
3204,BENTLEIGH,-37.916956,145.036783
3204,MCKINNON,-37.916956,145.036783
3204,ORMOND,-37.916956,145.036783
3204,PATTERSON,-37.916956,145.036783
3026,DERRIMUT,-37.91624,144.64209
3030,CHARTWELL,-37.91624,144.64209
3030,COCOROC,-37.91624,144.64209
3030,POINT COOK,-37.91624,144.64209
3030,QUANDONG,-37.91624,144.64209
3030,WERRIBEE,-37.91624,144.64209
3030,WERRIBEE SOUTH,-37.91624,144.64209
3186,BRIGHTON,-37.915066,144.996329
3186,BRIGHTON NORTH,-37.915066,144.996329
3186,DENDY,-37.915066,144.996329
3186,WERE STREET PO,-37.915066,144.996329
3880,BOOLE POOLE,-37.914728,147.727389
3880,OCEAN GRANGE,-37.914728,147.727389
3880,PAYNESVILLE,-37.914728,147.727389
3880,RAYMOND ISLAND,-37.914728,147.727389
3150,BRANDON PARK,-37.914383,145.168834
3168,CLAYTON,-37.91342,145.12665
3168,NOTTING HILL,-37.91342,145.12665
3800,MONASH UNIVERSITY,-37.910545,145.134935
3158,UPWEY,-37.910077,145.324468
3166,HUGHESDALE,-37.902805,145.089719
3166,HUNTINGDALE,-37.902805,145.089719
3166,OAKLEIGH,-37.902805,145.089719
3166,OAKLEIGH EAST,-37.902805,145.089719
3024,MAMBOURIN,-37.899873,144.556552
3024,MOUNT COTTRELL,-37.899873,144.556552
3024,WYNDHAM VALE,-37.899873,144.556552
3176,SCORESBY BC,-37.8992,145.23
3878,EAGLE POINT,-37.898544,147.680121
3179,SCORESBY,-37.897137,145.222634
3791,KALLISTA,-37.896917,145.379622
3163,BOORAN ROAD PO,-37.896497,145.057237
3163,CARNEGIE,-37.896497,145.057237
3163,GLEN HUNTLY,-37.896497,145.057237
3163,MURRUMBEENA,-37.896497,145.057237
3792,THE PATCH,-37.89424,145.405388
3180,KNOXFIELD,-37.893263,145.246731
3289,GAZETTE,-37.893196,142.227754
3289,PENSHURST,-37.893196,142.227754
3289,PURDEET,-37.893196,142.227754
3289,TABOR,-37.893196,142.227754
3162,CAULFIELD,-37.892139,145.023394
3162,CAULFIELD SOUTH,-37.892139,145.023394
3162,HOPETOUN GARDENS,-37.892139,145.023394
3185,ELSTERNWICK,-37.891841,145.002571
3185,GARDENVALE,-37.891841,145.002571
3185,RIPPONLEA,-37.891841,145.002571
3789,SHERBROOKE,-37.889767,145.357336
3271,DARLINGTON,-37.888549,142.98753
3271,DUNDONNELL,-37.888549,142.98753
3271,PURA PURA,-37.888549,142.98753
3859,MAFFRA WEST UPPER,-37.886136,146.848259
3859,MEWBURN PARK,-37.886136,146.848259
3859,NEWRY,-37.886136,146.848259
3859,TINAMBA,-37.886136,146.848259
3859,TINAMBA WEST,-37.886136,146.848259
3785,TREMONT,-37.885138,145.316734
3148,CHADSTONE,-37.882562,145.090149
3148,CHADSTONE CENTRE,-37.882562,145.090149
3148,HOLMESGLEN,-37.882562,145.090149
3184,BRIGHTON ROAD,-37.881414,144.984034
3184,ELWOOD,-37.881414,144.984034
3904,METUNG,-37.881041,147.839367
3149,MOUNT WAVERLEY,-37.880748,145.128118
3149,PINEWOOD,-37.880748,145.128118
3149,SYNDAL,-37.880748,145.128118
3786,FERNY CREEK,-37.878188,145.332431
3325,DERRINALLUM,-37.877452,143.185911
3325,LARRALEA,-37.877452,143.185911
3325,VITE VITE,-37.877452,143.185911
3325,VITE VITE NORTH,-37.877452,143.185911
3150,GLEN WAVERLEY,-37.876968,145.170841
3150,WHEELERS HILL,-37.876968,145.170841
3028,ALTONA MEADOWS,-37.875066,144.777165
3028,LAVERTON,-37.875066,144.777165
3028,SEABROOK,-37.875066,144.777165
3793,MONBULK,-37.874533,145.429715
3161,CAULFIELD JUNCTION,-37.873733,145.019929
3161,CAULFIELD NORTH,-37.873733,145.019929
3148,JORDANVILLE,-37.8736,145.112084
3145,CAULFIELD EAST,-37.873557,145.049328
3145,CENTRAL PARK,-37.873557,145.049328
3145,DARLING,-37.873557,145.049328
3145,DARLING SOUTH,-37.873557,145.049328
3145,MALVERN EAST,-37.873557,145.049328
3145,WATTLETREE ROAD PO,-37.873557,145.049328
3333,BAMGANIE,-37.87179,144.04476
3333,MEREDITH,-37.87179,144.04476
3183,BALACLAVA,-37.869072,144.999026
3183,ST KILDA EAST,-37.869072,144.999026
3147,ASHBURTON,-37.867864,145.092946
3147,ASHWOOD,-37.867864,145.092946
3797,GILDEROY,-37.867809,145.786343
3797,GLADYSDALE,-37.867809,145.786343
3797,POWELLTOWN,-37.867809,145.786343
3797,THREE BRIDGES,-37.867809,145.786343
3797,YARRA JUNCTION,-37.867809,145.786343
3024,MANOR LAKES,-37.86694209,144.5812323
3787,SASSAFRAS,-37.866786,145.350888
3787,SASSAFRAS GULLY,-37.866786,145.350888
3182,ST KILDA,-37.865322,144.979478
3182,ST KILDA SOUTH,-37.865322,144.979478
3182,ST KILDA WEST,-37.865322,144.979478
3152,KNOX CITY CENTRE,-37.864951,145.221695
3152,STUDFIELD,-37.864951,145.221695
3152,WANTIRNA,-37.864951,145.221695
3152,WANTIRNA SOUTH,-37.864951,145.221695
3016,WILLIAMSTOWN,-37.863743,144.888461
3016,WILLIAMSTOWN NORTH,-37.863743,144.888461
3027,WILLIAMS LANDING,-37.86199812,144.7430155
3155,BORONIA,-37.861799,145.284418
3018,ALTONA,-37.86172,144.812736
3018,SEAHOLME,-37.86172,144.812736
3864,FERNBANK,-37.860878,147.341513
3864,GLENALADALE,-37.860878,147.341513
3864,THE FINGERBOARD,-37.860878,147.341513
3143,ARMADALE,-37.858918,145.019393
3143,ARMADALE NORTH,-37.858918,145.019393
3144,KOOYONG,-37.857443,145.034127
3144,MALVERN,-37.857443,145.034127
3144,MALVERN NORTH,-37.857443,145.034127
3146,GLEN IRIS,-37.857116,145.057833
3154,THE BASIN,-37.856009,145.31784
3151,BURWOOD EAST,-37.85523,145.151119
3151,BURWOOD HEIGHTS,-37.85523,145.151119
3181,PRAHRAN,-37.854683,144.995504
3181,PRAHRAN EAST,-37.854683,144.995504
3181,WINDSOR,-37.854683,144.995504
3125,BENNETTSWOOD,-37.851305,145.101
3125,BURWOOD,-37.851305,145.101
3125,SURREY HILLS SOUTH,-37.851305,145.101
3217,DEAKIN UNIVERSITY,-37.8495,145.109
3133,VERMONT,-37.848786,145.192303
3133,VERMONT SOUTH,-37.848786,145.192303
3788,OLINDA,-37.848036,145.377128
3302,BRANXHOLME,-37.847981,141.706379
3302,GRASSDALE,-37.847981,141.706379
3206,ALBERT PARK,-37.846534,144.95086
3206,MIDDLE PARK,-37.846534,144.95086
3153,BAYSWATER,-37.845116,145.270141
3153,BAYSWATER NORTH,-37.845116,145.270141
3004,MELBOURNE,-37.844246,144.970161
3004,ST KILDA ROAD CENTRAL,-37.844246,144.970161
8008,ST KILDA ROAD CENTRAL,-37.844246,144.970161
8045,MELBOURNE,-37.844246,144.970161
8051,MELBOURNE,-37.844246,144.970161
8066,MELBOURNE,-37.844246,144.970161
8069,MELBOURNE,-37.844246,144.970161
8070,MELBOURNE,-37.844246,144.970161
8071,MELBOURNE,-37.844246,144.970161
8102,MELBOURNE,-37.844246,144.970161
8107,MELBOURNE,-37.844246,144.970161
8111,MELBOURNE,-37.844246,144.970161
8120,MELBOURNE,-37.844246,144.970161
8205,MELBOURNE,-37.844246,144.970161
3142,HAWKSBURN,-37.84411,145.017732
3142,TOORAK,-37.84411,145.017732
3833,ADA,-37.84222154,145.851865
3124,CAMBERWELL,-37.840867,145.068191
3124,CAMBERWELL NORTH,-37.840867,145.068191
3124,CAMBERWELL SOUTH,-37.840867,145.068191
3124,CAMBERWELL WEST,-37.840867,145.068191
3124,HARTWELL,-37.840867,145.068191
3124,MIDDLE CAMBERWELL,-37.840867,145.068191
3141,CHAPEL STREET NORTH,-37.840679,144.991264
3141,DOMAIN ROAD PO,-37.840679,144.991264
3141,SOUTH YARRA,-37.840679,144.991264
3340,STAUGHTON VALE,-37.84038931,144.2550519
3767,MOUNT DANDENONG,-37.839387,145.347505
3015,NEWPORT,-37.838242,144.880556
3015,SOUTH KINGSVILLE,-37.838242,144.880556
3015,SPOTSWOOD,-37.838242,144.880556
3029,HOPPERS CROSSING,-37.837165,144.705831
3029,TARNEIT,-37.837165,144.705831
3029,TRUGANINA,-37.837165,144.705831
3004,ST KILDA ROAD MELBOURNE,-37.8368,144.976
3795,SILVAN,-37.836663,145.430311
3025,ALTONA EAST,-37.835562,144.839704
3025,ALTONA GATE,-37.835562,144.839704
3025,ALTONA NORTH,-37.835562,144.839704
3207,GARDEN CITY,-37.832179,144.918044
3207,PORT MELBOURNE,-37.832179,144.918044
3205,SOUTH MELBOURNE,-37.831693,144.958176
3205,SOUTH MELBOURNE DC,-37.831693,144.958176
3026,LAVERTON NORTH,-37.829923,144.774986
3123,AUBURN,-37.829752,145.049415
3123,HAWTHORN EAST,-37.829752,145.049415
3833,BAW BAW,-37.829347,146.077886
3833,BAW BAW VILLAGE,-37.829347,146.077886
3833,ICY CREEK,-37.829347,146.077886
3833,LOCH VALLEY,-37.829347,146.077886
3833,MT BAW BAW,-37.829347,146.077886
3833,NOOJEE,-37.829347,146.077886
3833,PIEDMONT,-37.829347,146.077886
3833,TANJIL BREN,-37.829347,146.077886
3833,TOORONGO,-37.829347,146.077886
3833,VESPER,-37.829347,146.077886
3128,BOX HILL,-37.828866,145.122393
3128,BOX HILL CENTRAL,-37.828866,145.122393
3128,BOX HILL SOUTH,-37.828866,145.122393
3128,HOUSTON,-37.828866,145.122393
3128,WATTLE PARK,-37.828866,145.122393
3126,CAMBERWELL EAST,-37.827203,145.075748
3126,CANTERBURY,-37.827203,145.075748
3121,BURNLEY NORTH,-37.826869,145.007098
3309,DIGBY,-37.82644,141.511007
3875,BAIRNSDALE,-37.826032,147.63201
3875,BENGWORDEN,-37.826032,147.63201
3875,BROADLANDS,-37.826032,147.63201
3875,BULLUMWAAL,-37.826032,147.63201
3875,CALULU,-37.826032,147.63201
3875,CLIFTON CREEK,-37.826032,147.63201
3875,DEPTFORD,-37.826032,147.63201
3875,EAST BAIRNSDALE,-37.826032,147.63201
3875,ELLASWOOD,-37.826032,147.63201
3875,FAIRY DELL,-37.826032,147.63201
3875,FLAGGY CREEK,-37.826032,147.63201
3875,FORGE CREEK,-37.826032,147.63201
3875,GOON NURE,-37.826032,147.63201
3875,GRANITE ROCK,-37.826032,147.63201
3875,HILLSIDE,-37.826032,147.63201
3875,HOLLANDS LANDING,-37.826032,147.63201
3875,IGUANA CREEK,-37.826032,147.63201
3875,LINDENOW SOUTH,-37.826032,147.63201
3875,LUCKNOW,-37.826032,147.63201
3875,MELWOOD,-37.826032,147.63201
3875,MERRIJIG,-37.826032,147.63201
3875,MOUNT TAYLOR,-37.826032,147.63201
3875,NEWLANDS ARM,-37.826032,147.63201
3875,SARSFIELD,-37.826032,147.63201
3875,TABBERABBERA,-37.826032,147.63201
3875,WALPA,-37.826032,147.63201
3875,WATERHOLES,-37.826032,147.63201
3875,WOODGLEN,-37.826032,147.63201
3875,WUK WUK,-37.826032,147.63201
3875,WY YUNG,-37.826032,147.63201
3552,BENDIGO,-37.825288,145.011924
3006,SOUTH WHARF,-37.82528675,144.9520744
3127,MONT ALBERT,-37.825173,145.097236
3127,SURREY HILLS,-37.825173,145.097236
3127,SURREY HILLS NORTH,-37.825173,145.097236
3005,WORLD TRADE CENTRE,-37.824608,144.950858
8005,WORLD TRADE CENTRE,-37.824608,144.950858
3121,BURNLEY,-37.823303,145.001788
3121,CREMORNE,-37.823303,145.001788
3121,RICHMOND,-37.823303,145.001788
3121,RICHMOND EAST,-37.823303,145.001788
3121,RICHMOND NORTH,-37.823303,145.001788
3121,RICHMOND SOUTH,-37.823303,145.001788
3121,VICTORIA GARDENS,-37.823303,145.001788
3006,SOUTHBANK,-37.823258,144.965926
3134,HEATHWOOD,-37.823058,145.257929
3122,AUBURN SOUTH,-37.822725,145.030602
3122,GLENFERRIE SOUTH,-37.822725,145.030602
3122,HAWTHORN,-37.822725,145.030602
3122,HAWTHORN NORTH,-37.822725,145.030602
3122,HAWTHORN WEST,-37.822725,145.030602
3858,YANGOURA,-37.82195914,146.5677589
3909,KALIMNA,-37.821921,147.970237
3909,KALIMNA WEST,-37.821921,147.970237
3909,LAKE BUNGA,-37.821921,147.970237
3909,LAKE TYERS BEACH,-37.821921,147.970237
3909,LAKES ENTRANCE,-37.821921,147.970237
3909,NUNGURNER,-37.821921,147.970237
3909,NYERIMILANG,-37.821921,147.970237
3909,TOORLOO ARM,-37.821921,147.970237
3858,DAWSON,-37.821756,146.576101
3858,DENISON,-37.821756,146.576101
3858,GLEN FALLOCH,-37.821756,146.576101
3858,GLENMAGGIE,-37.821756,146.576101
3858,HEYFIELD,-37.821756,146.576101
3858,LICOLA,-37.821756,146.576101
3858,LICOLA NORTH,-37.821756,146.576101
3858,SEATON,-37.821756,146.576101
3858,TAMBORITHA,-37.821756,146.576101
3858,WINNINDOO,-37.821756,146.576101
3135,BEDFORD ROAD,-37.819594,145.248209
3135,HEATHMONT,-37.819594,145.248209
3135,RINGWOOD EAST,-37.819594,145.248209
3137,KILSYTH,-37.819364,145.313346
3137,KILSYTH SOUTH,-37.819364,145.313346
3132,MITCHAM,-37.819222,145.196686
3132,MITCHAM NORTH,-37.819222,145.196686
3132,RANGEVIEW,-37.819222,145.196686
3002,EAST MELBOURNE,-37.818517,144.982207
8002,EAST MELBOURNE,-37.818517,144.982207
8003,COLLINS STREET EAST,-37.8183,144.957
8007,COLLINS STREET WEST,-37.8183,144.957
3130,BLACKBURN,-37.81805,145.149653
3130,BLACKBURN NORTH,-37.81805,145.149653
3130,BLACKBURN SOUTH,-37.81805,145.149653
3130,LABURNUM,-37.81805,145.149653
3766,KALORAMA,-37.817818,145.384955
3131,BRENTFORD SQUARE,-37.817798,145.174489
3131,FOREST HILL,-37.817798,145.174489
3131,NUNAWADING,-37.817798,145.174489
3000,MELBOURNE,-37.817403,144.956776
3001,MELBOURNE,-37.817403,144.956776
9999,NORTH POLE,-37.817403,144.956776
8009,FLINDERS LANE,-37.817201,144.964531
3765,MONTROSE,-37.814771,145.346621
3008,DOCKLANDS,-37.814719,144.948039
8012,DOCKLANDS,-37.814719,144.948039
3139,BEENAK,-37.814506,145.532666
3139,DON VALLEY,-37.814506,145.532666
3139,HODDLES CREEK,-37.814506,145.532666
3139,LAUNCHING PLACE,-37.814506,145.532666
3139,SEVILLE,-37.814506,145.532666
3139,SEVILLE EAST,-37.814506,145.532666
3139,WANDIN EAST,-37.814506,145.532666
3139,WANDIN NORTH,-37.814506,145.532666
3139,WOORI YALLOCK,-37.814506,145.532666
3139,YELLINGBO,-37.814506,145.532666
3013,YARRAVILLE,-37.814183,144.888686
3013,YARRAVILLE WEST,-37.814183,144.888686
3875,EASTWOOD,-37.81289131,147.63201
3882,NICHOLSON,-37.812017,147.764385
3103,BALWYN,-37.811738,145.074116
3103,BALWYN EAST,-37.811738,145.074116
3103,DEEPDENE DC,-37.811738,145.074116
3103,DEEPDENE,-37.81141396,145.0658595
8011,LITTLE LONSDALE STREET,-37.8113144,144.9617461
3903,SWAN REACH,-37.811303,147.867533
3003,WEST MELBOURNE,-37.810871,144.949592
8006,ABECKETT STREET,-37.8097006,144.9593062
3101,COTHAM,-37.807397,145.036575
3101,KEW,-37.807397,145.036575
3012,BROOKLYN,-37.807135,144.861162
3012,KINGSVILLE,-37.807135,144.861162
3012,KINGSVILLE WEST,-37.807135,144.861162
3012,MAIDSTONE,-37.807135,144.861162
3012,TOTTENHAM,-37.807135,144.861162
3012,WEST FOOTSCRAY,-37.807135,144.861162
3011,FOOTSCRAY,-37.807101,144.907953
3011,SEDDON,-37.807101,144.907953
3011,SEDDON WEST,-37.807101,144.907953
3129,BOX HILL NORTH,-37.806965,145.125084
3129,KERRIMUIR,-37.806965,145.125084
3129,MONT ALBERT NORTH,-37.806965,145.125084
3066,COLLINGWOOD,-37.804846,144.986906
3066,COLLINGWOOD NORTH,-37.804846,144.986906
3053,CARLTON,-37.803569,144.966112
3053,CARLTON SOUTH,-37.803569,144.966112
3067,ABBOTSFORD,-37.803515,144.998203
3065,FITZROY,-37.802608,144.977795
3103,STRADBROKE PARK,-37.8007,145.062
3051,HOTHAM HILL,-37.8006,144.943559
3051,NORTH MELBOURNE,-37.8006,144.943559
3050,ROYAL MELBOURNE HOSPITAL,-37.800324,144.954581
3902,BUMBERRAH,-37.797042,147.814894
3902,JOHNSONVILLE,-37.797042,147.814894
3865,LINDENOW,-37.796743,147.455946
3010,UNIVERSITY OF MELBOURNE,-37.796152,144.961351
3134,RINGWOOD,-37.796091,145.232557
3134,RINGWOOD NORTH,-37.796091,145.232557
3134,WARRANDYTE SOUTH,-37.796091,145.232557
3134,WARRANWOOD,-37.796091,145.232557
3022,ARDEER,-37.795937,144.793961
3022,DEER PARK EAST,-37.795937,144.793961
3111,DONVALE,-37.794054,145.186334
3102,KEW EAST,-37.793805,145.05219
3104,BALWYN NORTH,-37.793695,145.081714
3104,GREYTHORN,-37.793695,145.081714
3031,FLEMINGTON,-37.79119,144.923403
3031,KENSINGTON,-37.79119,144.923403
3068,CLIFTON HILL,-37.790974,144.98622
3068,FITZROY NORTH,-37.790974,144.98622
3052,MELBOURNE UNIVERSITY,-37.788996,144.948903
3052,PARKVILLE,-37.788996,144.948903
3340,BACCHUS MARSH,-37.787135,144.394442
3340,BALLIANG,-37.787135,144.394442
3340,BALLIANG EAST,-37.787135,144.394442
3340,COIMADAI,-37.787135,144.394442
3340,DARLEY,-37.787135,144.394442
3340,GLENMORE,-37.787135,144.394442
3340,HOPETOUN PARK,-37.787135,144.394442
3340,LONG FOREST,-37.787135,144.394442
3340,MADDINGLEY,-37.787135,144.394442
3340,MERRIMU,-37.787135,144.394442
3340,PARWAN,-37.787135,144.394442
3340,ROWSLEY,-37.787135,144.394442
3796,MOUNT EVELYN,-37.786977,145.384922
3054,CARLTON NORTH,-37.786971,144.96724
3054,PRINCES HILL,-37.786971,144.96724
3108,DONCASTER,-37.786429,145.125797
3109,DONCASTER EAST,-37.784786,145.161649
3109,DONCASTER HEIGHTS,-37.784786,145.161649
3109,THE PINES,-37.784786,145.161649
3109,TUNSTALL SQUARE PO,-37.784786,145.161649
3019,BRAYBROOK,-37.784683,144.854014
3019,BRAYBROOK NORTH,-37.784683,144.854014
3019,ROBINSON,-37.784683,144.854014
3138,MOOROOLBARK,-37.78391,145.322794
3860,MONOMAK,-37.78389869,146.8250006
3023,BURNSIDE,-37.78272,144.770641
3023,CAIRNLEA,-37.78272,144.770641
3023,CAROLINE SPRINGS,-37.78272,144.770641
3023,DEER PARK,-37.78272,144.770641
3023,DEER PARK NORTH,-37.78272,144.770641
3023,RAVENHALL,-37.78272,144.770641
3136,CROYDON,-37.779876,145.282396
3136,CROYDON HILLS,-37.779876,145.282396
3136,CROYDON NORTH,-37.779876,145.282396
3136,CROYDON SOUTH,-37.779876,145.282396
3360,LINTON,-37.779677,143.51253
3360,MANNIBADAR,-37.779677,143.51253
3360,PITTONG,-37.779677,143.51253
3360,WILLOWVALE,-37.779677,143.51253
3114,PARK ORCHARDS,-37.778595,145.212599
3078,ALPHINGTON,-37.778298,145.025853
3078,FAIRFIELD,-37.778298,145.025853
3353,BALLARAT,-37.7778,144.835743
3020,ALBION,-37.777204,144.829945
3020,GLENGALA,-37.777204,144.829945
3020,SUNSHINE,-37.777204,144.829945
3020,SUNSHINE NORTH,-37.777204,144.829945
3020,SUNSHINE WEST,-37.777204,144.829945
3032,ASCOT VALE,-37.774486,144.897221
3032,HIGHPOINT CITY,-37.774486,144.897221
3032,MARIBYRNONG,-37.774486,144.897221
3032,TRAVANCORE,-37.774486,144.897221
3070,NORTHCOTE,-37.774064,144.999745
3070,NORTHCOTE SOUTH,-37.774064,144.999745
3079,IVANHOE,-37.772675,145.048573
3079,IVANHOE EAST,-37.772675,145.048573
3079,IVANHOE NORTH,-37.772675,145.048573
3105,BULLEEN,-37.772477,145.084806
3105,BULLEEN SOUTH,-37.772477,145.084806
3057,SUMNER,-37.772232,144.98034
3886,NEWMERELLA,-37.770977,148.426851
3057,BRUNSWICK EAST,-37.770012,144.97728
3057,LYGON STREET NORTH,-37.770012,144.97728
3379,BERRAMBOOL,-37.7667,142.6833
3056,BRUNSWICK,-37.766292,144.960108
3056,BRUNSWICK LOWER,-37.766292,144.960108
3056,BRUNSWICK NORTH,-37.766292,144.960108
3039,MOONEE PONDS,-37.766184,144.922995
3107,TEMPLESTOWE LOWER,-37.765225,145.110677
3055,BRUNSWICK SOUTH,-37.763584,144.942222
3055,BRUNSWICK WEST,-37.763584,144.942222
3055,MOONEE VALE,-37.763584,144.942222
3055,MORELAND WEST,-37.763584,144.942222
3034,AVONDALE HEIGHTS,-37.761235,144.86194
3071,THORNBURY,-37.759426,145.007006
3140,LILYDALE,-37.759154,145.363185
3106,TEMPLESTOWE,-37.758335,145.142675
3351,BERRINGA,-37.758248,143.637463
3351,BO PEEP,-37.758248,143.637463
3351,CAPE CLEAR,-37.758248,143.637463
3351,CARNGHAM,-37.758248,143.637463
3351,CHEPSTOWE,-37.758248,143.637463
3351,HADDON,-37.758248,143.637463
3351,HAPPY VALLEY,-37.758248,143.637463
3351,HILLCREST,-37.758248,143.637463
3351,ILLABAROOK,-37.758248,143.637463
3351,LAKE BOLAC,-37.758248,143.637463
3351,MININERA,-37.758248,143.637463
3351,MORTCHUP,-37.758248,143.637463
3351,MOUNT EMU,-37.758248,143.637463
3351,NERRIN NERRIN,-37.758248,143.637463
3351,NEWTOWN,-37.758248,143.637463
3351,NINTINGBOOL,-37.758248,143.637463
3351,PIGGOREET,-37.758248,143.637463
3351,PITFIELD,-37.758248,143.637463
3351,ROKEWOOD JUNCTION,-37.758248,143.637463
3351,ROSS CREEK,-37.758248,143.637463
3351,SCARSDALE,-37.758248,143.637463
3351,SMYTHES CREEK,-37.758248,143.637463
3351,SMYTHESDALE,-37.758248,143.637463
3351,SNAKE VALLEY,-37.758248,143.637463
3351,SPRINGDALLAH,-37.758248,143.637463
3351,STAFFORDSHIRE REEF,-37.758248,143.637463
3351,STREATHAM,-37.758248,143.637463
3351,WALLINDUC,-37.758248,143.637463
3351,WESTMERE,-37.758248,143.637463
3334,BUNGAL,-37.75803,144.086089
3334,CARGERIE,-37.75803,144.086089
3334,ELAINE,-37.75803,144.086089
3334,MORRISONS,-37.75803,144.086089
3334,MOUNT DORAN,-37.75803,144.086089
3887,LAKE TYERS,-37.757895,148.116641
3887,NOWA NOWA,-37.757895,148.116641
3887,WAIREWA,-37.757895,148.116641
3858,GILLUM,-37.7535504,146.7352987
3361,BRADVALE,-37.752643,143.373089
3361,CARRANBALLAC,-37.752643,143.373089
3361,SKIPTON,-37.752643,143.373089
3113,NORTH WARRANDYTE,-37.752123,145.204689
3113,WARRANDYTE,-37.752123,145.204689
3040,ABERFELDIE,-37.751845,144.902556
3040,ESSENDON,-37.751845,144.902556
3040,ESSENDON WEST,-37.751845,144.902556
3024,FIELDSTONE,-37.75045631,144.649936
3084,BANYULE,-37.744406,145.082685
3084,EAGLEMONT,-37.744406,145.082685
3084,HEIDELBERG,-37.744406,145.082685
3084,ROSANNA,-37.744406,145.082685
3084,VIEWBANK,-37.744406,145.082685
3021,ALBANVALE,-37.743361,144.796693
3021,KEALBA,-37.743361,144.796693
3021,KINGS PARK,-37.743361,144.796693
3021,ST ALBANS,-37.743361,144.796693
3300,BYADUK NORTH,-37.743155,142.013356
3300,HAMILTON,-37.743155,142.013356
3081,BELLFIELD,-37.743008,145.046401
3081,HEIDELBERG HEIGHTS,-37.743008,145.046401
3081,HEIDELBERG RGH,-37.743008,145.046401
3081,HEIDELBERG WEST,-37.743008,145.046401
3072,GILBERTON,-37.74247,145.005702
3072,NORTHLAND CENTRE,-37.74247,145.005702
3072,PRESTON,-37.74247,145.005702
3072,PRESTON LOWER,-37.74247,145.005702
3072,PRESTON SOUTH,-37.74247,145.005702
3072,PRESTON WEST,-37.74247,145.005702
3072,REGENT WEST,-37.74247,145.005702
3072,SYLVESTER,-37.74247,145.005702
3033,KEILOR EAST,-37.74107,144.857638
3058,BATMAN,-37.739901,144.964524
3058,COBURG,-37.739901,144.964524
3058,COBURG NORTH,-37.739901,144.964524
3058,MERLYNSTON,-37.739901,144.964524
3058,MORELAND,-37.739901,144.964524
3042,NIDDRIE NORTH,-37.7393,144.886
3093,LOWER PLENTY,-37.73919,145.115208
3116,CHIRNSIDE PARK,-37.737629,145.313086
3115,WONGA PARK,-37.736734,145.267586
3338,STRATHTULLOH,-37.73398997,144.5969094
3336,DEANSIDE,-37.7332,144.7041
3023,BURNSIDE HEIGHTS,-37.73218752,144.755657
3041,ESSENDON NORTH,-37.731464,144.904815
3041,STRATHMORE,-37.731464,144.904815
3041,STRATHMORE HEIGHTS,-37.731464,144.904815
3044,PASCOE VALE,-37.731138,144.936356
3044,PASCOE VALE SOUTH,-37.731138,144.936356
3335,THORNHILL PARK,-37.73029166,144.624896
3338,WEIR VIEWS,-37.72870467,144.5683367
3360,HAPPY VALLEY,-37.72758817,143.5955266
3799,BIG PATS CREEK,-37.727566,145.818512
3799,EAST WARBURTON,-37.727566,145.818512
3799,MCMAHONS CREEK,-37.727566,145.818512
3799,MILLGROVE,-37.727566,145.818512
3799,REEFTON,-37.727566,145.818512
3799,WARBURTON,-37.727566,145.818512
3799,WESBURN,-37.727566,145.818512
3042,AIRPORT WEST,-37.727529,144.866305
3042,KEILOR PARK,-37.727529,144.866305
3042,NIDDRIE,-37.727529,144.866305
3041,ESSENDON FIELDS,-37.72674618,144.9011039
3860,KOOROOL,-37.72619419,146.9425755
3085,MACLEOD,-37.724398,145.06988
3085,MACLEOD WEST,-37.724398,145.06988
3085,YALLAMBIE,-37.724398,145.06988
3335,PLUMPTON,-37.724141,144.699671
3335,ROCKBANK,-37.724141,144.699671
3086,LA TROBE UNIVERSITY,-37.721328,145.047012
3825,TOOMBON,-37.72124292,146.4393424
3094,MONTMORENCY,-37.719759,145.124727
3336,AINTREE,-37.719,144.6684
3037,CALDER PARK,-37.715579,144.780474
3037,DELAHEY,-37.715579,144.780474
3037,HILLSIDE,-37.715579,144.780474
3037,PLUMPTON,-37.715579,144.780474
3037,SYDENHAM,-37.715579,144.780474
3037,TAYLORS HILL,-37.715579,144.780474
3095,ELTHAM,-37.713299,145.158579
3095,ELTHAM NORTH,-37.713299,145.158579
3095,RESEARCH,-37.713299,145.158579
3073,KEON PARK,-37.712474,145.005955
3073,RESERVOIR,-37.712474,145.005955
3073,RESERVOIR EAST,-37.712474,145.005955
3073,RESERVOIR NORTH,-37.712474,145.005955
3073,RESERVOIR SOUTH,-37.712474,145.005955
3087,WATSONIA,-37.711787,145.082426
3087,WATSONIA NORTH,-37.711787,145.082426
3770,COLDSTREAM,-37.708784,145.416004
3770,GRUYERE,-37.708784,145.416004
3770,YERING,-37.708784,145.416004
3310,MERINO,-37.70789,141.549163
3310,TAHARA WEST,-37.70789,141.549163
3060,FAWKNER,-37.707326,144.967874
3060,FAWKNER EAST,-37.707326,144.967874
3060,FAWKNER NORTH,-37.707326,144.967874
3338,COBBLEBANK,-37.70732038,144.6008548
3335,GRANGEFIELDS,-37.7069003,144.6393305
3046,GLENROY,-37.706578,144.927968
3046,HADFIELD,-37.706578,144.927968
3046,OAK PARK,-37.706578,144.927968
3338,BROOKFIELD,-37.705529,144.571033
3338,EXFORD,-37.705529,144.571033
3338,EYNESBURY,-37.705529,144.571033
3338,MELTON SOUTH,-37.705529,144.571033
3036,KEILOR,-37.705324,144.82246
3036,KEILOR NORTH,-37.705324,144.82246
3336,FRASER RISE,-37.70482231,144.7126219
3083,BUNDOORA,-37.701346,145.056223
3083,KINGSBURY,-37.701346,145.056223
3083,LA TROBE UNIVERSITY,-37.701346,145.056223
3038,KEILOR DOWNS,-37.700454,144.766873
3038,KEILOR LODGE,-37.700454,144.766873
3038,TAYLORS LAKES,-37.700454,144.766873
3038,WATERGARDENS,-37.700454,144.766873
3088,BRIAR HILL,-37.700175,145.108339
3088,GREENSBOROUGH,-37.700175,145.108339
3088,SAINT HELENA,-37.700175,145.108339
3862,MOORNAPA,-37.69919183,147.1704522
3860,WOOLENOOK,-37.69783613,147.0446286
3335,BONNIE BROOK,-37.69608887,144.6698898
3097,BEND OF ISLANDS,-37.695254,145.224204
3097,KANGAROO GROUND,-37.695254,145.224204
3097,WATSONS CREEK,-37.695254,145.224204
3858,GLENFALLOCH,-37.69372058,146.6296585
3043,GLADSTONE PARK,-37.691916,144.888368
3043,GOWANBRAE,-37.691916,144.888368
3043,TULLAMARINE,-37.691916,144.888368
3088,ST HELENA,-37.68949912,145.1294801
3074,THOMASTOWN,-37.684684,145.006644
3860,WRIXON,-37.68351367,146.8512398
3047,BROADMEADOWS,-37.681105,144.930247
3047,DALLAS,-37.681105,144.930247
3047,JACANA,-37.681105,144.930247
3689,WODONGA,-37.67576,144.989793
3045,MELBOURNE AIRPORT,-37.674739,144.836195
3049,ATTWOOD,-37.673182,144.888492
3049,WESTMEADOWS,-37.673182,144.888492
3096,WATTLE GLEN,-37.670851,145.185826
3858,WORROWING,-37.66889173,146.7419767
3090,PLENTY,-37.668408,145.107802
3089,DIAMOND CREEK,-37.667713,145.150369
3061,CAMPBELLFIELD,-37.666265,144.956763
3825,JERICHO,-37.66622391,146.2288747
3075,LALOR,-37.66607,145.002679
3075,LALOR PLAZA,-37.66607,145.002679
3082,MILL PARK,-37.664858,145.065658
3619,KYABRAM,-37.659566,144.936295
3337,HARKNESS,-37.65724033,144.5462424
3337,KURUNJANG,-37.656057,144.571458
3337,MELTON,-37.656057,144.571458
3337,MELTON WEST,-37.656057,144.571458
3337,TOOLERN VALE,-37.656057,144.571458
3293,GLENTHOMPSON,-37.655945,142.527253
3293,NAREEB,-37.655945,142.527253
3293,NARRAPUMELAP SOUTH,-37.655945,142.527253
3357,BUNINYONG,-37.653945,143.883416
3357,SCOTSMANS LEAD,-37.653945,143.883416
3357,YARROWEE,-37.653945,143.883416
3048,COOLAROO,-37.653917,144.923609
3048,MEADOW HEIGHTS,-37.653917,144.923609
3342,BALLAN,-37.651463,144.239102
3342,BEREMBOKE,-37.651463,144.239102
3342,BLAKEVILLE,-37.651463,144.239102
3342,BUNDING,-37.651463,144.239102
3342,COLBROOK,-37.651463,144.239102
3342,DURDIDWARRAH,-37.651463,144.239102
3342,FISKVILLE,-37.651463,144.239102
3342,INGLISTON,-37.651463,144.239102
3342,MOUNT WALLACE,-37.651463,144.239102
3759,PANTON HILL,-37.650385,145.247277
3076,EPPING,-37.643598,145.022137
3076,EPPING DC,-37.643598,145.022137
3427,DIGGERS REST,-37.643461,144.707974
3427,PLUMPTON,-37.643461,144.707974
3775,CHRISTMAS HILLS,-37.642852,145.365993
3775,DIXONS CREEK,-37.642852,145.365993
3775,STEELS CREEK,-37.642852,145.365993
3775,TARRAWARRA,-37.642852,145.365993
3775,YARRA GLEN,-37.642852,145.365993
3059,GREENVALE,-37.639887,144.879626
3312,BAHGALLAH,-37.6391,141.365747
3312,BRIMBOAL,-37.6391,141.365747
3312,CARAPOOK,-37.6391,141.365747
3312,CHETWYND,-37.6391,141.365747
3312,DERGHOLM,-37.6391,141.365747
3312,DORODONG,-37.6391,141.365747
3312,DUNROBIN,-37.6391,141.365747
3312,HENTY,-37.6391,141.365747
3312,KILLARA,-37.6391,141.365747
3312,LAKE MUNDI,-37.6391,141.365747
3312,LINDSAY,-37.6391,141.365747
3312,MUNTHAM,-37.6391,141.365747
3312,NANGEELA,-37.6391,141.365747
3312,POOLAIJELO,-37.6391,141.365747
3312,POWERS CREEK,-37.6391,141.365747
3312,SANDFORD,-37.6391,141.365747
3312,STRATHDOWNIE,-37.6391,141.365747
3312,WANDO VALE,-37.6391,141.365747
3312,WARROCK,-37.6391,141.365747
3889,BELLBIRD CREEK,-37.63819699,148.814786
3091,YARRAMBAT,-37.637478,145.136688
3062,SOMERTON,-37.632986,144.932557
3760,SMITHS GULLY,-37.6269998,145.288344
3760,SMITHS GULLY,-37.624929,145.288073
3752,MORANG SOUTH,-37.619102,145.074353
3752,SOUTH MORANG,-37.619102,145.074353
3860,TOOLOME,-37.61645458,147.0534386
3889,BELL BIRD CREEK,-37.610841,148.873952
3889,BEMM RIVER,-37.610841,148.873952
3889,CABBAGE TREE CREEK,-37.610841,148.873952
3889,CLUB TERRACE,-37.610841,148.873952
3889,COMBIENBAR,-37.610841,148.873952
3889,ERRINUNDRA,-37.610841,148.873952
3889,MANORINA,-37.610841,148.873952
3777,BADGER CREEK,-37.606088,145.513804
3777,CASTELLA,-37.606088,145.513804
3777,CHUM CREEK,-37.606088,145.513804
3777,HEALESVILLE,-37.606088,145.513804
3777,HEALESVILLE MAIN STREET,-37.606088,145.513804
3777,HEALESVILLE POST SHOP,-37.606088,145.513804
3777,MOUNT TOOLEBEWONG,-37.606088,145.513804
3777,TOOLANGI,-37.606088,145.513804
3352,BONSHAW,-37.60335408,143.813696
3862,CASTLEBURN,-37.597551,147.228456
3862,COBBANNAH,-37.597551,147.228456
3862,CROOKED RIVER,-37.597551,147.228456
3862,DARGO,-37.597551,147.228456
3862,HAWKHURST,-37.597551,147.228456
3862,LLOWALONG,-37.597551,147.228456
3862,MEERLIEU,-37.597551,147.228456
3862,MUNRO,-37.597551,147.228456
3862,PERRY BRIDGE,-37.597551,147.228456
3862,STOCKDALE,-37.597551,147.228456
3862,STRATFORD,-37.597551,147.228456
3862,WATERFORD,-37.597551,147.228456
3750,WOLLERT,-37.596078,145.005578
3860,WRATHUNG,-37.59554693,146.9492264
3063,OAKLANDS JUNCTION,-37.595015,144.856082
3063,YUROKE,-37.595015,144.856082
3754,DOREEN,-37.593554,145.112985
3754,MERNDA,-37.593554,145.112985
3356,BONSHAW,-37.592283,143.82846
3356,DELACOMBE,-37.592283,143.82846
3356,SEBASTOPOL,-37.592283,143.82846
3099,ARTHURS CREEK,-37.592101,145.192854
3099,COTTLES BRIDGE,-37.592101,145.192854
3099,HURSTBRIDGE,-37.592101,145.192854
3099,NUTFIELD,-37.592101,145.192854
3099,STRATHEWEN,-37.592101,145.192854
3428,BULLA,-37.591069,144.811494
3345,GORDON,-37.5878,144.123664
3314,BULART,-37.586718,141.935665
3314,CAVENDISH,-37.586718,141.935665
3314,GLENISLA,-37.586718,141.935665
3314,MOORALLA,-37.586718,141.935665
3314,WOOHLPOOER,-37.586718,141.935665
3858,SARGOOD,-37.58636148,146.7389535
3761,ST ANDREWS,-37.585625,145.292381
3841,GIPPSLAND MC,-37.5832,147.463
3358,WINTER VALLEY,-37.58012926,143.7928013
3860,NAP NAP MARRA,-37.57861321,146.8458785
3294,DUNKELD,-37.573978,142.312764
3294,KARABEAL,-37.573978,142.312764
3294,MIRRANATWA,-37.573978,142.312764
3294,MOUTAJUP,-37.573978,142.312764
3294,VICTORIA POINT,-37.573978,142.312764
3294,VICTORIA VALLEY,-37.573978,142.312764
3294,WOODHOUSE,-37.573978,142.312764
3341,DALES CREEK,-37.573711,144.308232
3341,GREENDALE,-37.573711,144.308232
3341,KOROBEIT,-37.573711,144.308232
3341,MYRNIONG,-37.573711,144.308232
3341,PENTLAND HILLS,-37.573711,144.308232
3315,MUNTHAM,-37.5733696,141.5443271
3350,ALFREDTON,-37.571941,143.864505
3350,BAKERY HILL,-37.571941,143.864505
3350,BALLARAT,-37.571941,143.864505
3350,BALLARAT CENTRAL,-37.571941,143.864505
3350,BALLARAT EAST,-37.571941,143.864505
3350,BALLARAT NORTH,-37.571941,143.864505
3350,BALLARAT WEST,-37.571941,143.864505
3350,BLACK HILL,-37.571941,143.864505
3350,BROWN HILL,-37.571941,143.864505
3350,CANADIAN,-37.571941,143.864505
3350,EUREKA,-37.571941,143.864505
3350,GOLDEN POINT,-37.571941,143.864505
3350,INVERMAY PARK,-37.571941,143.864505
3350,LAKE WENDOUREE,-37.571941,143.864505
3350,MOUNT CLEAR,-37.571941,143.864505
3350,MOUNT HELEN,-37.571941,143.864505
3350,MOUNT PLEASANT,-37.571941,143.864505
3350,NERRINA,-37.571941,143.864505
3350,NEWINGTON,-37.571941,143.864505
3350,REDAN,-37.571941,143.864505
3350,SOLDIERS HILL,-37.571941,143.864505
3350,SOVEREIGN HILL,-37.571941,143.864505
3860,BOISDALE,-37.571707,146.805175
3860,BRIAGOLONG,-37.571707,146.805175
3860,BUSHY PARK,-37.571707,146.805175
3860,COONGULLA,-37.571707,146.805175
3860,MAFFRA,-37.571707,146.805175
3860,NUNTIN,-37.571707,146.805175
3860,RIVERSLEA,-37.571707,146.805175
3860,VALENCIA CREEK,-37.571707,146.805175
3891,GENOA,-37.567684,149.538907
3891,GIPSY POINT,-37.567684,149.538907
3891,MARAMINGO CREEK,-37.567684,149.538907
3891,WALLAGARAUGH,-37.567684,149.538907
3891,WANGARABELL,-37.567684,149.538907
3891,WINGAN RIVER,-37.567684,149.538907
3891,WROXHAM,-37.567684,149.538907
3429,SUNBURY,-37.56762,144.728973
3429,WILDWOOD,-37.56762,144.728973
3890,BULDAH,-37.566489,149.217216
3890,CANN RIVER,-37.566489,149.217216
3890,CHANDLERS CREEK,-37.566489,149.217216
3890,NOORINBEE,-37.566489,149.217216
3890,NOORINBEE NORTH,-37.566489,149.217216
3890,TAMBOON,-37.566489,149.217216
3890,TONGHI CREEK,-37.566489,149.217216
3890,WEERAGUA,-37.566489,149.217216
3755,YAN YEAN,-37.563905,145.142035
3892,MALLACOOTA,-37.563775,149.909868
3354,BAKERY HILL,-37.560917,143.867158
3354,BALLARAT MC,-37.560917,143.867158
3751,WOODSTOCK,-37.554655,145.052904
3350,LUCAS,-37.55411084,143.769084
3862,BUDGEE BUDGEE,-37.55304411,147.130018
3875,RYANS,-37.55196002,147.63201
3064,CRAIGIEBURN,-37.546522,144.942199
3064,DONNYBROOK,-37.546522,144.942199
3064,KALKALLO,-37.546522,144.942199
3064,MICKLEHAM,-37.546522,144.942199
3064,ROXBURGH PARK,-37.546522,144.942199
3779,CAMBARVILLE,-37.539267,145.784751
3779,MARYSVILLE,-37.539267,145.784751
3778,FERNSHAW,-37.537492,145.623011
3778,NARBETHONG,-37.537492,145.623011
3379,BORNES HILL,-37.534037,142.521439
3379,CHATSWORTH,-37.534037,142.521439
3379,MAFEKING,-37.534037,142.521439
3379,STAVELY,-37.534037,142.521439
3379,WATGANIA,-37.534037,142.521439
3379,WICKLIFFE,-37.534037,142.521439
3379,WILLAURA,-37.534037,142.521439
3379,WILLAURA NORTH,-37.534037,142.521439
3355,LAKE GARDENS,-37.530285,143.82561
3355,MITCHELL PARK,-37.530285,143.82561
3355,WENDOUREE,-37.530285,143.82561
3355,WENDOUREE VILLAGE,-37.530285,143.82561
3378,TATYOON,-37.528792,142.985403
3378,YALLA-Y-POORA,-37.528792,142.985403
3763,KINGLAKE,-37.521863,145.353378
3763,MOUNT SLIDE,-37.521863,145.353378
3437,BULLENGAROOK,-37.501619,144.513018
3437,GISBORNE,-37.501619,144.513018
3437,GISBORNE SOUTH,-37.501619,144.513018
3893,DOUBLE BRIDGES,-37.495349,147.866067
3893,STIRLING,-37.495349,147.866067
3893,TAMBO CROSSING,-37.495349,147.866067
3430,CLARKEFIELD,-37.494056,144.806632
3858,BURAGWONDUC,-37.49088696,146.7706256
3860,MOROKA,-37.48991548,146.9388373
3858,CROOKAYAN,-37.48411474,146.6214281
3352,ADDINGTON,-37.482132,143.662387
3352,BALLARAT ROADSIDE DELIVERY,-37.482132,143.662387
3352,BARKSTEAD,-37.482132,143.662387
3352,BLOWHARD,-37.482132,143.662387
3352,BOLWARRAH,-37.482132,143.662387
3352,BREWSTER,-37.482132,143.662387
3352,BULLAROOK,-37.482132,143.662387
3352,BUNGAREE,-37.482132,143.662387
3352,BUNKERS HILL,-37.482132,143.662387
3352,BURRUMBEET,-37.482132,143.662387
3352,CAMBRIAN HILL,-37.482132,143.662387
3352,CARDIGAN,-37.482132,143.662387
3352,CARDIGAN VILLAGE,-37.482132,143.662387
3352,CHAPEL FLAT,-37.482132,143.662387
3352,CLARENDON,-37.482132,143.662387
3352,CLARETOWN,-37.482132,143.662387
3352,CLARKES HILL,-37.482132,143.662387
3352,CORINDHAP,-37.482132,143.662387
3352,DEAN,-37.482132,143.662387
3352,DEREEL,-37.482132,143.662387
3352,DUNNSTOWN,-37.482132,143.662387
3352,DURHAM LEAD,-37.482132,143.662387
3352,ENFIELD,-37.482132,143.662387
3352,ERCILDOUNE,-37.482132,143.662387
3352,GARIBALDI,-37.482132,143.662387
3352,GLEN PARK,-37.482132,143.662387
3352,GLENBRAE,-37.482132,143.662387
3352,GONG GONG,-37.482132,143.662387
3352,GRENVILLE,-37.482132,143.662387
3352,INVERMAY,-37.482132,143.662387
3352,LAL LAL,-37.482132,143.662387
3352,LAMPLOUGH,-37.482132,143.662387
3352,LANGI KAL KAL,-37.482132,143.662387
3352,LEARMONTH,-37.482132,143.662387
3352,LEIGH CREEK,-37.482132,143.662387
3352,LEXTON,-37.482132,143.662387
3352,MAGPIE,-37.482132,143.662387
3352,MILLBROOK,-37.482132,143.662387
3352,MINERS REST,-37.482132,143.662387
3352,MITCHELL PARK,-37.482132,143.662387
3352,MOLLONGGHIP,-37.482132,143.662387
3352,MOUNT BOLTON,-37.482132,143.662387
3352,MOUNT EGERTON,-37.482132,143.662387
3352,MOUNT MERCER,-37.482132,143.662387
3352,MOUNT MITCHELL,-37.482132,143.662387
3352,MOUNT ROWAN,-37.482132,143.662387
3352,NAPOLEONS,-37.482132,143.662387
3352,NAVIGATORS,-37.482132,143.662387
3352,POOTILLA,-37.482132,143.662387
3352,SCOTCHMANS LEAD,-37.482132,143.662387
3352,SCOTSBURN,-37.482132,143.662387
3352,SPRINGBANK,-37.482132,143.662387
3352,SULKY,-37.482132,143.662387
3352,WALLACE,-37.482132,143.662387
3352,WARRENHEIP,-37.482132,143.662387
3352,WATTLE FLAT,-37.482132,143.662387
3352,WAUBRA,-37.482132,143.662387
3352,WEATHERBOARD,-37.482132,143.662387
3352,WERNETH,-37.482132,143.662387
3352,WINDERMERE,-37.482132,143.662387
3352,YENDON,-37.482132,143.662387
3364,BARKSTEAD,-37.47880506,144.0999652
3753,BEVERIDGE,-37.476474,144.959512
3431,RIDDELLS CREEK,-37.474551,144.69202
3862,MIOWERA,-37.4711505,147.0748445
3757,BRUCES CREEK,-37.469784,145.182221
3757,EDEN PARK,-37.469784,145.182221
3757,HUMEVALE,-37.469784,145.182221
3757,KINGLAKE CENTRAL,-37.469784,145.182221
3757,KINGLAKE WEST,-37.469784,145.182221
3757,PHEASANT CREEK,-37.469784,145.182221
3757,WHITTLESEA,-37.469784,145.182221
3311,CASTERTON,-37.468159,141.229722
3311,CORNDALE,-37.468159,141.229722
3311,HEATH FIELD,-37.468159,141.229722
3311,PURALKA,-37.468159,141.229722
3373,BEAUFORT,-37.457785,143.343429
3373,CHUTE,-37.457785,143.343429
3373,CROSS ROADS,-37.457785,143.343429
3373,LAKE GOLDSMITH,-37.457785,143.343429
3373,LAKE WONGAN,-37.457785,143.343429
3373,MAIN LEAD,-37.457785,143.343429
3373,MENA PARK,-37.457785,143.343429
3373,NERRING,-37.457785,143.343429
3373,RAGLAN,-37.457785,143.343429
3373,SHIRLEY,-37.457785,143.343429
3373,STOCKYARD HILL,-37.457785,143.343429
3373,STONELEIGH,-37.457785,143.343429
3373,TRAWALLA,-37.457785,143.343429
3373,WATERLOO,-37.457785,143.343429
3438,NEW GISBORNE,-37.457528,144.602032
3363,DEAN,-37.45543067,143.9835358
3432,BOLINDA,-37.448455,144.792581
3875,MARTHAVALE,-37.44431597,147.63201
3312,WANDO BRIDGE,-37.43928729,141.4238728
3723,KNOCKWOOD,-37.42570709,146.2594778
3375,BALLYROGAN,-37.424288,143.143621
3375,BAYINDEEN,-37.424288,143.143621
3375,BUANGOR,-37.424288,143.143621
3375,MIDDLE CREEK,-37.424288,143.143621
3458,BARRYS REEF,-37.424116,144.33471
3458,BLACKWOOD,-37.424116,144.33471
3458,FERN HILL,-37.424116,144.33471
3458,LERDERDERG,-37.424116,144.33471
3458,LITTLE HAMPTON,-37.424116,144.33471
3458,NEWBURY,-37.424116,144.33471
3458,NORTH BLACKWOOD,-37.424116,144.33471
3458,TRENTHAM,-37.424116,144.33471
3458,TRENTHAM EAST,-37.424116,144.33471
3363,CRESWICK,-37.420588,143.88637
3363,CRESWICK NORTH,-37.420588,143.88637
3363,GLENDARUEL,-37.420588,143.88637
3363,LANGDONS HILL,-37.420588,143.88637
3363,MOUNT BECKWORTH,-37.420588,143.88637
3363,TOURELLO,-37.420588,143.88637
3723,ENOCHS POINT,-37.41855045,146.1186202
3440,MACEDON,-37.413377,144.546151
3433,MONEGEETTA,-37.413302,144.752095
3756,CHINTIN,-37.41233,144.956641
3756,DARRAWEIT GUIM,-37.41233,144.956641
3756,HIDDEN VALLEY,-37.41233,144.956641
3756,UPPER PLENTY,-37.41233,144.956641
3756,WALLAN,-37.41233,144.956641
3756,WALLAN EAST,-37.41233,144.956641
3711,BUXTON,-37.41047,145.682161
3315,BRIT BRIT,-37.408371,141.687516
3315,CLOVER FLAT,-37.408371,141.687516
3315,COLERAINE,-37.408371,141.687516
3315,COOJAR,-37.408371,141.687516
3315,CULLA,-37.408371,141.687516
3315,GRINGEGALGONA,-37.408371,141.687516
3315,GRITJURK,-37.408371,141.687516
3315,HILGAY,-37.408371,141.687516
3315,KONONGWOOTONG,-37.408371,141.687516
3315,MELVILLE FOREST,-37.408371,141.687516
3315,NAREEN,-37.408371,141.687516
3315,PARKWOOD,-37.408371,141.687516
3315,PASCHENDALE,-37.408371,141.687516
3315,TAHARA BRIDGE,-37.408371,141.687516
3315,TARRAYOUKYAN,-37.408371,141.687516
3315,TARRENLEA,-37.408371,141.687516
3315,WOOTONG VALE,-37.408371,141.687516
3895,REEDY FLAT,-37.40606605,147.916566
3364,SMOKEYTOWN,-37.40001075,143.9221405
3862,COWA,-37.39966422,147.1868903
3441,MOUNT MACEDON,-37.399224,144.603892
3888,BENDOC,-37.39051,148.660943
3888,BETE BOLONG,-37.39051,148.660943
3888,BETE BOLONG NORTH,-37.39051,148.660943
3888,BONANG,-37.39051,148.660943
3888,BRODRIBB RIVER,-37.39051,148.660943
3888,CABANANDRA,-37.39051,148.660943
3888,CAPE CONRAN,-37.39051,148.660943
3888,CORRINGLE,-37.39051,148.660943
3888,DELEGATE RIVER EAST,-37.39051,148.660943
3888,DELLICKNORA,-37.39051,148.660943
3888,GOONGERAH,-37.39051,148.660943
3888,HAYDENS BOG,-37.39051,148.660943
3888,JARRAHMOND,-37.39051,148.660943
3888,LOCHEND,-37.39051,148.660943
3888,MARLO,-37.39051,148.660943
3888,MARTINS CREEK,-37.39051,148.660943
3888,NURRAN,-37.39051,148.660943
3888,OMEO VALLEY,-37.39051,148.660943
3888,ORBOST,-37.39051,148.660943
3888,SIMPSONS CREEK,-37.39051,148.660943
3888,TOSTAREE,-37.39051,148.660943
3888,TUBBUT,-37.39051,148.660943
3888,WAYGARA,-37.39051,148.660943
3888,WOMBAT CREEK,-37.39051,148.660943
3895,DOCTORS FLAT,-37.379331,147.887515
3895,ENSAY,-37.379331,147.887515
3895,ENSAY NORTH,-37.379331,147.887515
3895,REEDY CREEK,-37.379331,147.887515
3858,ARBUCKLE,-37.3690401,146.8291658
3364,GLENDONALD,-37.36045587,143.8443538
3658,CLONBINANE,-37.35670207,145.1574765
3858,REYNARD,-37.35595129,146.6252375
3758,HEATHCOTE JUNCTION,-37.354647,145.052552
3758,WANDONG,-37.354647,145.052552
3762,BYLANDS,-37.354143,144.936707
3434,CHEROKEE,-37.35388,144.750796
3434,KERRIE,-37.35388,144.750796
3434,ROMSEY,-37.35388,144.750796
3434,SPRINGFIELD,-37.35388,144.750796
3460,BASALT,-37.351704,144.144216
3460,DAYLESFORD,-37.351704,144.144216
3314,GRAMPIANS,-37.34896421,142.329907
3364,ALLENDALE,-37.334655,143.907186
3364,ASCOT,-37.334655,143.907186
3364,BALD HILLS,-37.334655,143.907186
3364,BLAMPIED,-37.334655,143.907186
3364,BROOMFIELD,-37.334655,143.907186
3364,CABBAGE TREE,-37.334655,143.907186
3364,CAMPBELLTOWN,-37.334655,143.907186
3364,COGHILLS CREEK,-37.334655,143.907186
3364,GLENDONNELL,-37.334655,143.907186
3364,KINGSTON,-37.334655,143.907186
3364,KOOROOCHEANG,-37.334655,143.907186
3364,LAWRENCE,-37.334655,143.907186
3364,MOUNT PROSPECT,-37.334655,143.907186
3364,NEWLYN,-37.334655,143.907186
3364,NEWLYN NORTH,-37.334655,143.907186
3364,ROCKLYN,-37.334655,143.907186
3364,SMEATON,-37.334655,143.907186
3364,SMOKEY TOWN,-37.334655,143.907186
3364,SPRINGMOUNT,-37.334655,143.907186
3364,STRATHLEA,-37.334655,143.907186
3364,ULLINA,-37.334655,143.907186
3364,WERONA,-37.334655,143.907186
3442,ASHBOURNE,-37.330661,144.548846
3442,CADELLO,-37.330661,144.548846
3442,CARLSRUHE,-37.330661,144.548846
3442,COBAW,-37.330661,144.548846
3442,HANGING ROCK,-37.330661,144.548846
3442,HESKET,-37.330661,144.548846
3442,NEWHAM,-37.330661,144.548846
3442,ROCHFORD,-37.330661,144.548846
3442,WOODEND,-37.330661,144.548846
3442,WOODEND NORTH,-37.330661,144.548846
3712,RUBICON,-37.3209,145.839057
3712,THORNTON,-37.3209,145.839057
3875,WENTWORTH,-37.30864369,147.63201
3407,BALMORAL,-37.298061,141.948371
3407,ENGLEFIELD,-37.298061,141.948371
3407,GATUM,-37.298061,141.948371
3407,PIGEON PONDS,-37.298061,141.948371
3407,VASEY,-37.298061,141.948371
3885,BRUTHEN,-37.291807,148.118511
3885,BUCHAN,-37.291807,148.118511
3885,BUCHAN SOUTH,-37.291807,148.118511
3885,BUTCHERS RIDGE,-37.291807,148.118511
3885,GELANTIPY,-37.291807,148.118511
3885,MOSSIFACE,-37.291807,148.118511
3885,MURRINDAL,-37.291807,148.118511
3885,SUGGAN BUGGAN,-37.291807,148.118511
3885,TAMBO UPPER,-37.291807,148.118511
3885,TIMBARRA,-37.291807,148.118511
3885,W TREE,-37.291807,148.118511
3885,WISELEIGH,-37.291807,148.118511
3885,WULGULMERANG,-37.291807,148.118511
3885,WULGULMERANG EAST,-37.291807,148.118511
3885,WULGULMERANG WEST,-37.291807,148.118511
3885,YALMY,-37.291807,148.118511
3461,BULLARTO,-37.287848,144.170995
3461,BULLARTO SOUTH,-37.287848,144.170995
3461,CLYDESDALE,-37.287848,144.170995
3461,COOMOORA,-37.287848,144.170995
3461,DENVER,-37.287848,144.170995
3461,DRUMMOND,-37.287848,144.170995
3461,DRY DIGGINGS,-37.287848,144.170995
3461,EGANSTOWN,-37.287848,144.170995
3461,ELEVATED PLAINS,-37.287848,144.170995
3461,FRANKLINFORD,-37.287848,144.170995
3461,GLENLYON,-37.287848,144.170995
3461,HEPBURN,-37.287848,144.170995
3461,HEPBURN SPRINGS,-37.287848,144.170995
3461,KORWEINGUBOORA,-37.287848,144.170995
3461,LEONARDS HILL,-37.287848,144.170995
3461,LYONVILLE,-37.287848,144.170995
3461,MOUNT FRANKLIN,-37.287848,144.170995
3461,MUSK,-37.287848,144.170995
3461,MUSK VALE,-37.287848,144.170995
3461,PORCUPINE RIDGE,-37.287848,144.170995
3461,SAILORS FALLS,-37.287848,144.170995
3461,SAILORS HILL,-37.287848,144.170995
3461,SHEPHERDS FLAT,-37.287848,144.170995
3461,SPARGO CREEK,-37.287848,144.170995
3461,STRANGWAYS,-37.287848,144.170995
3461,WHEATSHEAF,-37.287848,144.170995
3461,YANDOIT,-37.287848,144.170995
3461,YANDOIT HILLS,-37.287848,144.170995
3717,FLOWERDALE,-37.286611,145.435776
3717,GHIN GHIN,-37.286611,145.435776
3717,GLENBURN,-37.286611,145.435776
3717,HOMEWOOD,-37.286611,145.435776
3717,KILLINGWORTH,-37.286611,145.435776
3717,LIMESTONE,-37.286611,145.435776
3717,MURRINDINDI,-37.286611,145.435776
3717,YEA,-37.286611,145.435776
3370,ULLINA,-37.27629787,143.8880006
3401,ROCKLANDS,-37.2749188,142.0507182
3896,BINDI,-37.264671,147.707962
3896,BROOKVILLE,-37.264671,147.707962
3896,NUNNIONG,-37.264671,147.707962
3896,SWIFTS CREEK,-37.264671,147.707962
3896,TONGIO,-37.264671,147.707962
3764,FORBES,-37.263736,144.900644
3764,GLENAROUA,-37.263736,144.900644
3764,HIGH CAMP,-37.263736,144.900644
3764,KILMORE,-37.263736,144.900644
3764,KILMORE EAST,-37.263736,144.900644
3764,MORANDING,-37.263736,144.900644
3764,TANTARABOO,-37.263736,144.900644
3764,WILLOWMAVIN,-37.263736,144.900644
3468,AMPHITHEATRE,-37.261481,143.379493
3468,MOUNT LONARCH,-37.261481,143.379493
3862,WONGUNGARRA,-37.25564455,147.0451171
3370,CLUNES,-37.252718,143.815613
3370,GLENGOWER,-37.252718,143.815613
3370,MOUNT CAMERON,-37.252718,143.815613
3858,BILLABONG,-37.24480987,146.80983
3713,EILDON,-37.241527,145.90623
3713,LAKE EILDON,-37.241527,145.90623
3658,BROADFORD,-37.241401,145.111854
3658,CLONBINANE,-37.241401,145.111854
3658,FLOWERDALE,-37.241401,145.111854
3658,HAZELDENE,-37.241401,145.111854
3658,REEDY CREEK,-37.241401,145.111854
3658,STRATH CREEK,-37.241401,145.111854
3658,SUNDAY CREEK,-37.241401,145.111854
3658,TYAAK,-37.241401,145.111854
3658,WATERFORD PARK,-37.241401,145.111854
3374,GREAT WESTERN,-37.231524,142.956916
3377,AMPHITHEATRE,-37.231524,142.956916
3377,ARARAT,-37.231524,142.956916
3377,ARARAT EAST,-37.231524,142.956916
3377,ARMSTRONG,-37.231524,142.956916
3377,BEN NEVIS,-37.231524,142.956916
3377,CATHCART,-37.231524,142.956916
3377,CROWLANDS,-37.231524,142.956916
3377,DENICULL CREEK,-37.231524,142.956916
3377,DOBIE,-37.231524,142.956916
3377,DUNNEWORTHY,-37.231524,142.956916
3377,EVERSLEY,-37.231524,142.956916
3377,GREAT WESTERN,-37.231524,142.956916
3377,JALLUKUR,-37.231524,142.956916
3377,LANGI LOGAN,-37.231524,142.956916
3377,MAROONA,-37.231524,142.956916
3377,MOUNT COLE,-37.231524,142.956916
3377,MOUNT COLE CREEK,-37.231524,142.956916
3377,MOUNT LONARCH,-37.231524,142.956916
3377,MOYSTON,-37.231524,142.956916
3377,NORVAL,-37.231524,142.956916
3377,RHYMNEY,-37.231524,142.956916
3377,ROCKY POINT,-37.231524,142.956916
3377,ROSSBRIDGE,-37.231524,142.956916
3377,WARRAK,-37.231524,142.956916
3714,WHANREGARWEN,-37.2189348,145.6196525
3714,ACHERON,-37.210538,145.687889
3714,ALEXANDRA,-37.210538,145.687889
3714,CATHKIN,-37.210538,145.687889
3714,CRYSTAL CREEK,-37.210538,145.687889
3714,FAWCETT,-37.210538,145.687889
3714,KORIELLA,-37.210538,145.687889
3714,TAGGERTY,-37.210538,145.687889
3713,TAYLOR BAY,-37.20794843,145.880225
3858,HOWITT PLAINS,-37.20631423,146.685872
3722,BARWITE,-37.202634,146.253268
3722,MANSFIELD,-37.202634,146.253268
3722,MIRIMBAH,-37.202634,146.253268
3371,AMHERST,-37.196938,143.635622
3371,BURNBANK,-37.196938,143.635622
3371,CARALULUP,-37.196938,143.635622
3371,DUNACH,-37.196938,143.635622
3371,EVANSFORD,-37.196938,143.635622
3371,LILLICUR,-37.196938,143.635622
3371,MOUNT GLASGOW,-37.196938,143.635622
3371,STONY CREEK,-37.196938,143.635622
3371,TALBOT,-37.196938,143.635622
3714,DEVILS RIVER,-37.18897433,145.8060118
3446,DRUMMOND NORTH,-37.184831,144.374338
3446,MALMSBURY,-37.184831,144.374338
3435,BENLOCH,-37.179453,144.743358
3435,GOLDIE,-37.179453,144.743358
3435,LANCEFIELD,-37.179453,144.743358
3435,NULLA VALE,-37.179453,144.743358
3371,RED LION,-37.1766686,143.7666842
3469,ELMHURST,-37.172964,143.280627
3469,GLENLOFTY,-37.172964,143.280627
3469,GLENLOGIE,-37.172964,143.280627
3469,GLENPATRICK,-37.172964,143.280627
3469,NOWHERE CREEK,-37.172964,143.280627
3444,BARFOLD,-37.171788,144.544716
3444,BAYNTON,-37.171788,144.544716
3444,BAYNTON EAST,-37.171788,144.544716
3444,EDGECOMBE,-37.171788,144.544716
3444,GLENHOPE,-37.171788,144.544716
3444,GREENHILL,-37.171788,144.544716
3444,KYNETON,-37.171788,144.544716
3444,KYNETON SOUTH,-37.171788,144.544716
3444,LANGLEY,-37.171788,144.544716
3444,LAURISTON,-37.171788,144.544716
3444,LYAL,-37.171788,144.544716
3444,METCALFE EAST,-37.171788,144.544716
3444,MIA MIA,-37.171788,144.544716
3444,MYRTLE CREEK,-37.171788,144.544716
3444,PASTORIA,-37.171788,144.544716
3444,PASTORIA EAST,-37.171788,144.544716
3444,PIPERS CREEK,-37.171788,144.544716
3444,REDESDALE,-37.171788,144.544716
3444,SIDONIA,-37.171788,144.544716
3444,SPRING HILL,-37.171788,144.544716
3444,TYLDEN,-37.171788,144.544716
3444,TYLDEN SOUTH,-37.171788,144.544716
3317,HARROW,-37.166673,141.451647
3402,HORSHAM,-37.164183,142.666302
3447,TARADALE,-37.157744,144.322487
3718,MOLESWORTH,-37.144067,145.54096
3737,WONNANGATTA,-37.13823976,146.8156764
3381,BELLELLEN,-37.13783665,142.6925099
3381,BLACK RANGE,-37.1348818,142.7641486
3714,MAINTONGOON,-37.13112911,145.7781021
3377,BULGANA,-37.12975291,142.9948304
3658,SUGARLOAF CREEK,-37.12839823,145.0277018
3451,BARKERS CREEK,-37.125338,144.21419
3451,CAMPBELLS CREEK,-37.125338,144.21419
3451,CHEWTON,-37.125338,144.21419
3451,CHEWTON BUSHLANDS,-37.125338,144.21419
3451,FARADAY,-37.125338,144.21419
3451,FRYERSTOWN,-37.125338,144.21419
3451,GLENLUCE,-37.125338,144.21419
3451,GOLDEN POINT,-37.125338,144.21419
3451,GOWER,-37.125338,144.21419
3451,GUILDFORD,-37.125338,144.21419
3451,IRISHTOWN,-37.125338,144.21419
3451,MCKENZIE HILL,-37.125338,144.21419
3451,MUCKLEFORD,-37.125338,144.21419
3451,TARILTA,-37.125338,144.21419
3451,VAUGHAN,-37.125338,144.21419
3451,WOODBROOK,-37.125338,144.21419
3451,YAPEEN,-37.125338,144.21419
3659,SUGARLOAF CREEK,-37.110344,145.07088
3659,TALLAROOK,-37.110344,145.07088
3888,DELEGATE RIVER,-37.10937561,148.812726
3467,AVOCA,-37.105993,143.412675
3467,MOYREISK,-37.105993,143.412675
3477,MOYREISK,-37.105993,143.412675
3381,MOKEPILLY,-37.09290738,142.6448077
3521,PYALONG,-37.090071,144.912693
3364,JOYCES CREEK,-37.08856117,143.9880643
3462,GREEN GULLY,-37.083561,144.053611
3462,JOYCES CREEK,-37.083561,144.053611
3462,MUCKLEFORD SOUTH,-37.083561,144.053611
3462,NEWSTEAD,-37.083561,144.053611
3462,SANDON,-37.083561,144.053611
3462,WELSHMANS REEF,-37.083561,144.053611
3448,ELPHINSTONE,-37.075364,144.387629
3448,METCALFE,-37.075364,144.387629
3448,SUTTON GRANGE,-37.075364,144.387629
3522,GLENHOPE EAST,-37.07349322,144.7011112
3737,SELWYN,-37.06713454,146.9999008
3377,SHAYS FLAT,-37.06683249,143.0871367
3380,BELLELLEN,-37.0666,142.771159
3380,BRIDGE INN,-37.0666,142.771159
3380,MOKEPILLY,-37.0666,142.771159
3380,STAWELL,-37.0666,142.771159
3380,STAWELL WEST,-37.0666,142.771159
3380,WINJALLOK,-37.0666,142.771159
3477,WINJALLOK,-37.0666,142.771159
3898,ANGLERS REST,-37.066169,147.464799
3898,BINGO,-37.066169,147.464799
3898,BINGO MUNJIE,-37.066169,147.464799
3898,BUNDARA,-37.066169,147.464799
3898,CASSILIS,-37.066169,147.464799
3898,COBUNGRA,-37.066169,147.464799
3898,DINNER PLAIN,-37.066169,147.464799
3898,GLEN VALLEY,-37.066169,147.464799
3898,GLEN WILLS,-37.066169,147.464799
3898,HINNOMUNJIE,-37.066169,147.464799
3898,OMEO,-37.066169,147.464799
3898,SHANNONVALE,-37.066169,147.464799
3384,JOEL SOUTH,-37.06314423,142.9994761
3450,CASTLEMAINE,-37.061635,144.214903
3450,MOONLIGHT FLAT,-37.061635,144.214903
3888,DEDDICK VALLEY,-37.05839205,148.4725251
3724,MANSFIELD,-37.053108,146.076832
3522,EMU FLAT,-37.050037,144.747197
3522,TOOBORAC,-37.050037,144.747197
3381,MOUNT DRYDEN,-37.04638597,142.5318605
3384,CONCONGELLA,-37.04625762,142.8740132
3719,GOBUR,-37.041215,145.608491
3719,KANUMBRA,-37.041215,145.608491
3719,TERIP TERIP,-37.041215,145.608491
3719,YARCK,-37.041215,145.608491
3401,BRIMPAEN,-37.03953686,142.2041883
3409,DOUGLAS,-37.03897482,141.7107285
3660,HILLDENE,-37.03704373,145.0457777
3660,CAVEAT,-37.035925,145.257867
3660,DROPMORE,-37.035925,145.257867
3660,DYSART,-37.035925,145.257867
3660,HIGHLANDS,-37.035925,145.257867
3660,KERRISDALE,-37.035925,145.257867
3660,KOBYBOYN,-37.035925,145.257867
3660,NORTHWOOD,-37.035925,145.257867
3660,SEYMOUR,-37.035925,145.257867
3660,SEYMOUR SOUTH,-37.035925,145.257867
3660,TRAWOOL,-37.035925,145.257867
3660,WHITEHEADS CREEK,-37.035925,145.257867
3401,WARTOOK,-37.0307138,142.3452363
3463,GOWER,-37.02851213,144.0988962
3318,CHARAM,-37.025316,141.269571
3318,CONNEWIRRICOO,-37.025316,141.269571
3318,EDENHOPE,-37.025316,141.269571
3318,JALLAKIN,-37.025316,141.269571
3318,KADNOOK,-37.025316,141.269571
3318,LANGKOOP,-37.025316,141.269571
3318,MEEREEK,-37.025316,141.269571
3318,PATYAH,-37.025316,141.269571
3318,ULLSWATER,-37.025316,141.269571
3409,WOMBELANO,-37.02197072,141.570286
3465,ADELAIDE LEAD,-37.021478,143.611335
3465,ALMA,-37.021478,143.611335
3465,BOWENVALE,-37.021478,143.611335
3465,BUNG BONG,-37.021478,143.611335
3465,COTSWOLD,-37.021478,143.611335
3465,CRAIGIE,-37.021478,143.611335
3465,DAISY HILL,-37.021478,143.611335
3465,FLAGSTAFF,-37.021478,143.611335
3465,GOLDEN POINT,-37.021478,143.611335
3465,HAVELOCK,-37.021478,143.611335
3465,HOMEBUSH,-37.021478,143.611335
3465,MAJORCA,-37.021478,143.611335
3465,MARYBOROUGH,-37.021478,143.611335
3465,MOOLORT,-37.021478,143.611335
3465,MOONLIGHT FLAT,-37.021478,143.611335
3465,NATTE YALLOCK,-37.021478,143.611335
3465,RATHSCAR,-37.021478,143.611335
3465,RATHSCAR WEST,-37.021478,143.611335
3465,RODBOROUGH,-37.021478,143.611335
3465,SIMSON,-37.021478,143.611335
3465,TIMOR,-37.021478,143.611335
3465,TIMOR WEST,-37.021478,143.611335
3465,WAREEK,-37.021478,143.611335
3384,JOEL JOEL,-37.01984772,142.9867746
3464,CARISBROOK,-37.019811,143.841414
3720,BONNIE DOON,-37.017241,145.850304
3885,BRUMBY,-37.01610136,148.0696953
3384,FRENCHMANS,-37.000261,143.126344
3384,LANDSBOROUGH,-37.000261,143.126344
3384,LANDSBOROUGH WEST,-37.000261,143.126344
3384,NAVARRE,-37.000261,143.126344
3384,SHAYS FLAT,-37.000261,143.126344
3384,WATTLE CREEK,-37.000261,143.126344
3385,DEEP LEAD,-36.99999967,142.7110642
3381,BARKLY,-36.988914,142.7154
3381,BELLFIELD,-36.988914,142.7154
3381,BOLANGUM,-36.988914,142.7154
3381,CALLAWADDA,-36.988914,142.7154
3381,CAMPBELLS BRIDGE,-36.988914,142.7154
3381,CONCONGELLA,-36.988914,142.7154
3381,DEEP LEAD,-36.988914,142.7154
3381,FYANS CREEK,-36.988914,142.7154
3381,GERMANIA,-36.988914,142.7154
3381,GREENS CREEK,-36.988914,142.7154
3381,HALLS GAP,-36.988914,142.7154
3381,ILLAWARRA,-36.988914,142.7154
3381,JOEL JOEL,-36.988914,142.7154
3381,JOEL SOUTH,-36.988914,142.7154
3381,KANYA,-36.988914,142.7154
3381,LAKE FYANS,-36.988914,142.7154
3381,LAKE LONSDALE,-36.988914,142.7154
3381,LUBECK,-36.988914,142.7154
3381,MORRL MORRL,-36.988914,142.7154
3381,PARADISE,-36.988914,142.7154
3381,POMONAL,-36.988914,142.7154
3381,ROSTRON,-36.988914,142.7154
3381,WAL WAL,-36.988914,142.7154
3381,WALLALOO,-36.988914,142.7154
3381,WALLALOO EAST,-36.988914,142.7154
3477,PARADISE,-36.988914,142.7154
3477,ROSTRON,-36.988914,142.7154
3715,ANCONA,-36.985747,145.739419
3715,MERTON,-36.985747,145.739419
3715,WOODFIELD,-36.985747,145.739419
3387,GERMANIA,-36.97659863,142.7584938
3385,ROSES GAP,-36.97419597,142.4561838
3741,BRIGHT,-36.962316,147.063163
3741,FREEBURGH,-36.962316,147.063163
3741,GERMANTOWN,-36.962316,147.063163
3741,HARRIETVILLE,-36.962316,147.063163
3741,HOTHAM HEIGHTS,-36.962316,147.063163
3741,MOUNT HOTHAM,-36.962316,147.063163
3741,SMOKO,-36.962316,147.063163
3463,BARINGHUP,-36.957983,144.05651
3463,BARINGHUP WEST,-36.957983,144.05651
3463,BRADFORD,-36.957983,144.05651
3463,EASTVILLE,-36.957983,144.05651
3463,LAANECOORIE,-36.957983,144.05651
3463,MALDON,-36.957983,144.05651
3463,NEEREMAN,-36.957983,144.05651
3463,NUGGETTY,-36.957983,144.05651
3463,PERKINS REEF,-36.957983,144.05651
3463,PORCUPINE FLAT,-36.957983,144.05651
3463,SHELBOURNE,-36.957983,144.05651
3463,TARRENGOWER,-36.957983,144.05651
3463,WALMER,-36.957983,144.05651
3463,WOODSTOCK WEST,-36.957983,144.05651
3453,HARCOURT,-36.950365,144.281488
3453,HARCOURT NORTH,-36.950365,144.281488
3453,RAVENSWOOD,-36.950365,144.281488
3453,RAVENSWOOD SOUTH,-36.950365,144.281488
3898,OMEO VALLEY,-36.94711928,147.6157209
3384,TULKARA,-36.94387585,143.0484349
3662,PUCKAPUNYAL MILPO,-36.939204,144.960214
3384,BARKLY,-36.93829078,143.2173081
3409,CLEAR LAKE,-36.93658009,141.8934852
3551,MYRTLE CREEK,-36.93636806,144.4059296
3662,PUCKAPUNYAL,-36.9356483,144.9486555
3387,GREENS CREEK,-36.93245666,142.9444988
3664,AVENEL,-36.927251,145.298203
3387,CAMPBELLS BRIDGE,-36.92542526,142.7959945
3663,MANGALORE,-36.910878,145.158863
3409,JILPANGER,-36.91000699,141.7461966
3385,DADSWELLS BRIDGE,-36.904185,142.647565
3385,GLENORCHY,-36.904185,142.647565
3385,LEDCOURT,-36.904185,142.647565
3385,RIACHELLA,-36.904185,142.647565
3664,UPTON HILL,-36.89547953,145.4034627
3723,ARCHERTON,-36.894465,146.256507
3723,BARJARG,-36.894465,146.256507
3723,BOOROLITE,-36.894465,146.256507
3723,BRIDGE CREEK,-36.894465,146.256507
3723,DELATITE,-36.894465,146.256507
3723,GAFFNEYS CREEK,-36.894465,146.256507
3723,GOUGHS BAY,-36.894465,146.256507
3723,HOWES CREEK,-36.894465,146.256507
3723,HOWQUA,-36.894465,146.256507
3723,HOWQUA HILLS,-36.894465,146.256507
3723,HOWQUA INLET,-36.894465,146.256507
3723,JAMIESON,-36.894465,146.256507
3723,KEVINGTON,-36.894465,146.256507
3723,MACS COVE,-36.894465,146.256507
3723,MAINDAMPLE,-36.894465,146.256507
3723,MATLOCK,-36.894465,146.256507
3723,MERRIJIG,-36.894465,146.256507
3723,MOUNT BULLER,-36.894465,146.256507
3723,MOUNTAIN BAY,-36.894465,146.256507
3723,NILLAHCOOTIE,-36.894465,146.256507
3723,PIRIES,-36.894465,146.256507
3723,SAWMILL SETTLEMENT,-36.894465,146.256507
3723,TOLMIE,-36.894465,146.256507
3723,WOODS POINT,-36.894465,146.256507
3551,LAKE EPPALOCK,-36.88282226,144.5982185
3401,BLACKHEATH,-36.881534,141.940832
3401,BUNGALALLY,-36.881534,141.940832
3401,CHERRYPOOL,-36.881534,141.940832
3401,CLEAR LAKE,-36.881534,141.940832
3401,CONNANGORACH,-36.881534,141.940832
3401,DAHLEN,-36.881534,141.940832
3401,DOOEN,-36.881534,141.940832
3401,DOUGLAS,-36.881534,141.940832
3401,DRUNG,-36.881534,141.940832
3401,GREEN LAKE,-36.881534,141.940832
3401,GYMBOWEN,-36.881534,141.940832
3401,HAVEN,-36.881534,141.940832
3401,HORSHAM,-36.881534,141.940832
3401,JALLUMBA,-36.881534,141.940832
3401,JILPANGER,-36.881534,141.940832
3401,KALKEE,-36.881534,141.940832
3401,KANAGULK,-36.881534,141.940832
3401,KARNAK,-36.881534,141.940832
3401,LAHARUM,-36.881534,141.940832
3401,LOWER NORTON,-36.881534,141.940832
3401,MCKENZIE CREEK,-36.881534,141.940832
3401,MIGA LAKE,-36.881534,141.940832
3401,MITRE,-36.881534,141.940832
3401,MOCKINYA,-36.881534,141.940832
3401,MURRA WARRA,-36.881534,141.940832
3401,NORADJUHA,-36.881534,141.940832
3401,NURCOUNG,-36.881534,141.940832
3401,NURRABIEL,-36.881534,141.940832
3401,PIMPINIO,-36.881534,141.940832
3401,QUANTONG,-36.881534,141.940832
3401,REMLAW,-36.881534,141.940832
3401,RIVERSIDE,-36.881534,141.940832
3401,ROCKLANDS,-36.881534,141.940832
3401,TELANGATUK EAST,-36.881534,141.940832
3401,TOOAN,-36.881534,141.940832
3401,TOOLONDO,-36.881534,141.940832
3401,VECTIS,-36.881534,141.940832
3401,WALLUP,-36.881534,141.940832
3401,WOMBELANO,-36.881534,141.940832
3401,WONWONDAH,-36.881534,141.940832
3401,ZUMSTEINS,-36.881534,141.940832
3900,BENAMBRA,-36.88053,147.826143
3900,COBBERAS,-36.88053,147.826143
3900,UPLANDS,-36.88053,147.826143
3319,APSLEY,-36.873961,141.051389
3319,BENAYEO,-36.873961,141.051389
3319,BRINGALBERT,-36.873961,141.051389
3387,MORRL MORRL,-36.86638119,142.8949426
3472,BET BET,-36.864952,143.657638
3472,BETLEY,-36.864952,143.657638
3472,BROMLEY,-36.864952,143.657638
3472,DUNLUCE,-36.864952,143.657638
3472,DUNOLLY,-36.864952,143.657638
3472,EDDINGTON,-36.864952,143.657638
3472,GOLDSBOROUGH,-36.864952,143.657638
3472,INKERMAN,-36.864952,143.657638
3472,MCINTYRE,-36.864952,143.657638
3472,MOLIAGUL,-36.864952,143.657638
3472,MOUNT HOOGHLY,-36.864952,143.657638
3409,MIGA LAKE,-36.85914305,141.6408336
3409,NORADJUHA,-36.84799315,141.9194993
3515,SHELBOURNE,-36.84708994,144.0636842
3699,BOGONG,-36.844307,147.299257
3699,FALLS CREEK,-36.844307,147.299257
3699,MOUNT BEAUTY,-36.844307,147.299257
3665,LOCKSLEY,-36.844091,145.357627
3665,LONGWOOD,-36.844091,145.357627
3665,PRANJIP,-36.844091,145.357627
3607,TABILK,-36.839707,145.179762
3666,LONGWOOD EAST,-36.8382328,145.4559546
3523,ARGYLE,-36.837461,144.768359
3523,COSTERFIELD,-36.837461,144.768359
3523,DERRINAL,-36.837461,144.768359
3523,HEATHCOTE,-36.837461,144.768359
3523,HEATHCOTE SOUTH,-36.837461,144.768359
3523,KNOWSLEY,-36.837461,144.768359
3523,LADYS PASS,-36.837461,144.768359
3523,MOORMBOOL WEST,-36.837461,144.768359
3523,MOUNT CAMEL,-36.837461,144.768359
3523,REDCASTLE,-36.837461,144.768359
3699,NELSE,-36.83390754,147.3656102
3387,CALLAWADDA,-36.82285865,142.7940368
3385,WAL WAL,-36.81909176,142.616484
3733,WHITFIELD,-36.812087,146.316338
3409,TOOAN,-36.80951649,141.7810211
3477,DALYENONG,-36.8061787,143.4180029
3387,WALLALOO EAST,-36.80559338,142.9089779
3744,WANDILIGONG,-36.788479,146.95979
3666,BALMATTUM,-36.786777,145.565512
3666,CREIGHTON,-36.786777,145.565512
3666,CREIGHTONS CREEK,-36.786777,145.565512
3666,EUROA,-36.786777,145.565512
3666,GOORAM,-36.786777,145.565512
3666,KELVIN VIEW,-36.786777,145.565512
3666,KITHBROOK,-36.786777,145.565512
3666,MIEPOLL,-36.786777,145.565512
3666,MOGLONEMBY,-36.786777,145.565512
3666,MOLKA,-36.786777,145.565512
3666,RIGGS CREEK,-36.786777,145.565512
3666,RUFFY,-36.786777,145.565512
3666,SHEANS CREEK,-36.786777,145.565512
3666,STRATHBOGIE,-36.786777,145.565512
3666,TARCOMBE,-36.786777,145.565512
3401,ST HELENS PLAINS,-36.78558459,142.4320005
3551,ARNOLD,-36.78137,144.457937
3551,ARNOLD WEST,-36.78137,144.457937
3551,ASCOT,-36.78137,144.457937
3551,AXE CREEK,-36.78137,144.457937
3551,AXEDALE,-36.78137,144.457937
3551,BAGSHOT,-36.78137,144.457937
3551,BAGSHOT NORTH,-36.78137,144.457937
3551,BENDIGO FORWARD,-36.78137,144.457937
3551,CORNELLA,-36.78137,144.457937
3551,EMU CREEK,-36.78137,144.457937
3551,EPPALOCK,-36.78137,144.457937
3551,EPSOM,-36.78137,144.457937
3551,HUNTLY,-36.78137,144.457937
3551,HUNTLY NORTH,-36.78137,144.457937
3551,JUNORTOUN,-36.78137,144.457937
3551,KIMBOLTON,-36.78137,144.457937
3551,LLANELLY,-36.78137,144.457937
3551,LOCKWOOD,-36.78137,144.457937
3551,LOCKWOOD SOUTH,-36.78137,144.457937
3551,LONGLEA,-36.78137,144.457937
3551,MAIDEN GULLY,-36.78137,144.457937
3551,MANDURANG,-36.78137,144.457937
3551,MANDURANG SOUTH,-36.78137,144.457937
3551,MINTO,-36.78137,144.457937
3551,MOSQUITO CREEK,-36.78137,144.457937
3551,MURPHYS CREEK,-36.78137,144.457937
3551,MYOLA,-36.78137,144.457937
3551,MYOLA EAST,-36.78137,144.457937
3551,NEWBRIDGE,-36.78137,144.457937
3551,PAINSWICK,-36.78137,144.457937
3551,PILCHERS BRIDGE,-36.78137,144.457937
3551,SEDGWICK,-36.78137,144.457937
3551,STRATHFIELDSAYE,-36.78137,144.457937
3551,TARNAGULLA,-36.78137,144.457937
3551,TOOLLEEN,-36.78137,144.457937
3551,WAANYARRA,-36.78137,144.457937
3551,WELLSFORD,-36.78137,144.457937
3551,WOODSTOCK ON LODDON,-36.78137,144.457937
3555,BIG HILL,-36.777226,144.245239
3555,GOLDEN GULLY,-36.777226,144.245239
3555,GOLDEN SQUARE,-36.777226,144.245239
3555,KANGAROO FLAT,-36.777226,144.245239
3555,LANSELL PLAZA,-36.777226,144.245239
3555,SPECIMEN HILL,-36.777226,144.245239
3387,KANYA,-36.77318828,142.9860744
3550,BENDIGO,-36.764269,144.285267
3550,BENDIGO SOUTH,-36.764269,144.285267
3550,DIAMOND HILL,-36.764269,144.285267
3550,EAST BENDIGO,-36.764269,144.285267
3550,FLORA HILL,-36.764269,144.285267
3550,IRONBARK,-36.764269,144.285267
3550,KENNINGTON,-36.764269,144.285267
3550,LONG GULLY,-36.764269,144.285267
3550,NORTH BENDIGO,-36.764269,144.285267
3550,QUARRY HILL,-36.764269,144.285267
3550,SANDHURST EAST,-36.764269,144.285267
3550,SPRING GULLY,-36.764269,144.285267
3550,STRATHDALE,-36.764269,144.285267
3550,TYSONS REEF,-36.764269,144.285267
3550,WEST BENDIGO,-36.764269,144.285267
3550,WHITE HILLS,-36.764269,144.285267
3554,BENDIGO DC,-36.757,144.279
3387,WALLALOO,-36.74801665,142.9016653
3608,BAILIESTON,-36.740713,145.095753
3608,GOULBURN WEIR,-36.740713,145.095753
3608,GRAYTOWN,-36.740713,145.095753
3608,KIRWANS BRIDGE,-36.740713,145.095753
3608,MITCHELLSTOWN,-36.740713,145.095753
3608,NAGAMBIE,-36.740713,145.095753
3608,WAHRING,-36.740713,145.095753
3608,WIRRATE,-36.740713,145.095753
3385,LUBECK,-36.73975806,142.5335742
3666,PRANJIP,-36.73207618,145.3825696
3740,BUCKLAND,-36.731686,146.834561
3740,MOUNT BUFFALO,-36.731686,146.834561
3740,POREPUNKAH,-36.731686,146.834561
3515,MARONG,-36.729444,144.062915
3515,WILSONS HILL,-36.729444,144.062915
3400,BRIMPAEN,-36.725245,142.203729
3400,HORSHAM,-36.725245,142.203729
3400,HORSHAM WEST,-36.725245,142.203729
3400,ST HELENS PLAINS,-36.725245,142.203729
3400,WARTOOK,-36.725245,142.203729
3400,WONWONDAH EAST,-36.725245,142.203729
3400,WONWONDAH SOUTH,-36.725245,142.203729
3409,ARAPILES,-36.72484337,141.8632367
3698,TAWONGA SOUTH,-36.722034,147.149468
3409,MITRE,-36.71831242,141.7727332
3387,BOLANGUM,-36.71744157,142.9814278
3387,MARNOO WEST,-36.71153166,142.7794333
3475,ARCHDALE,-36.70633,143.51213
3475,ARCHDALE JUNCTION,-36.70633,143.51213
3475,BEALIBA,-36.70633,143.51213
3475,BURKES FLAT,-36.70633,143.51213
3475,COCHRANES CREEK,-36.70633,143.51213
3475,EMU,-36.70633,143.51213
3475,LOGAN,-36.70633,143.51213
3413,MINIMAY,-36.699331,141.201068
3413,NEUARPURR,-36.699331,141.201068
3413,OZENKADNOOK,-36.699331,141.201068
3413,PERONNE,-36.699331,141.201068
3678,BOBINAWARRAH,-36.68892,146.482439
3678,BOORHAMAN,-36.68892,146.482439
3678,BOORHAMAN EAST,-36.68892,146.482439
3678,BOWSER,-36.68892,146.482439
3678,BYAWATHA,-36.68892,146.482439
3678,CARBOOR,-36.68892,146.482439
3678,CHESHUNT,-36.68892,146.482439
3678,CHESHUNT SOUTH,-36.68892,146.482439
3678,DOCKER,-36.68892,146.482439
3678,DOCKERS PLAINS,-36.68892,146.482439
3678,EAST WANGARATTA,-36.68892,146.482439
3678,EDI,-36.68892,146.482439
3678,EDI UPPER,-36.68892,146.482439
3678,EVERTON,-36.68892,146.482439
3678,EVERTON UPPER,-36.68892,146.482439
3678,KILLAWARRA,-36.68892,146.482439
3678,KING VALLEY,-36.68892,146.482439
3678,LACEBY,-36.68892,146.482439
3678,LONDRIGAN,-36.68892,146.482439
3678,MARKWOOD,-36.68892,146.482439
3678,MEADOW CREEK,-36.68892,146.482439
3678,MILAWA,-36.68892,146.482439
3678,NORTH WANGARATTA,-36.68892,146.482439
3678,OXLEY,-36.68892,146.482439
3678,OXLEY FLATS,-36.68892,146.482439
3678,PEECHELBA,-36.68892,146.482439
3678,PEECHELBA EAST,-36.68892,146.482439
3678,ROSE RIVER,-36.68892,146.482439
3678,TARRAWINGEE,-36.68892,146.482439
3678,WABONGA,-36.68892,146.482439
3678,WALDARA,-36.68892,146.482439
3678,WANGANDARY,-36.68892,146.482439
3678,WANGARATTA FORWARD,-36.68892,146.482439
3678,WANGARATTA SOUTH,-36.68892,146.482439
3678,WHITLANDS,-36.68892,146.482439
3477,AVON PLAINS,-36.688551,143.230699
3477,BEAZLEYS BRIDGE,-36.688551,143.230699
3477,CARAPOOEE,-36.688551,143.230699
3477,CARAPOOEE WEST,-36.688551,143.230699
3477,COONOOER BRIDGE,-36.688551,143.230699
3477,COONOOER WEST,-36.688551,143.230699
3477,GOOROC,-36.688551,143.230699
3477,GOWAR EAST,-36.688551,143.230699
3477,GRE GRE,-36.688551,143.230699
3477,GRE GRE NORTH,-36.688551,143.230699
3477,GRE GRE SOUTH,-36.688551,143.230699
3477,KOOREH,-36.688551,143.230699
3477,MOOLERR,-36.688551,143.230699
3477,REDBANK,-36.688551,143.230699
3477,SLATY CREEK,-36.688551,143.230699
3477,ST ARNAUD EAST,-36.688551,143.230699
3477,ST ARNAUD NORTH,-36.688551,143.230699
3477,STUART MILL,-36.688551,143.230699
3477,SUTHERLAND,-36.688551,143.230699
3477,SWANWATER,-36.688551,143.230699
3477,TOTTINGTON,-36.688551,143.230699
3477,TRAYNORS LAGOON,-36.688551,143.230699
3478,AVON PLAINS,-36.688551,143.230699
3478,BEAZLEYS BRIDGE,-36.688551,143.230699
3478,BERRIMAL WEST,-36.688551,143.230699
3478,CARAPOOEE,-36.688551,143.230699
3478,CARAPOOEE WEST,-36.688551,143.230699
3478,COONOOER BRIDGE,-36.688551,143.230699
3478,COONOOER WEST,-36.688551,143.230699
3478,DARKBONEE,-36.688551,143.230699
3478,DOOBOOBETIC,-36.688551,143.230699
3478,ELBERTON,-36.688551,143.230699
3478,GOOROC,-36.688551,143.230699
3478,GOWAR EAST,-36.688551,143.230699
3478,GRE GRE,-36.688551,143.230699
3478,GRE GRE NORTH,-36.688551,143.230699
3478,GRE GRE SOUTH,-36.688551,143.230699
3478,KOOREH,-36.688551,143.230699
3478,MEDLYN,-36.688551,143.230699
3478,MITCHELLS HILL,-36.688551,143.230699
3478,MOOLERR,-36.688551,143.230699
3478,MOONAMBEL,-36.688551,143.230699
3478,PERCYDALE,-36.688551,143.230699
3478,REDBANK,-36.688551,143.230699
3478,SLATY CREEK,-36.688551,143.230699
3478,ST ARNAUD,-36.688551,143.230699
3478,ST ARNAUD EAST,-36.688551,143.230699
3478,ST ARNAUD NORTH,-36.688551,143.230699
3478,STUART MILL,-36.688551,143.230699
3478,SUTHERLAND,-36.688551,143.230699
3478,SWANWATER,-36.688551,143.230699
3478,TANWOOD,-36.688551,143.230699
3478,TOTTINGTON,-36.688551,143.230699
3478,TRAYNORS LAGOON,-36.688551,143.230699
3478,TULKARA,-36.688551,143.230699
3478,WARRENMANG,-36.688551,143.230699
3478,YAWONG HILLS,-36.688551,143.230699
3697,TAWONGA,-36.68753,147.17925
3732,MOYHU,-36.686814,146.313751
3732,MYRRHEE,-36.686814,146.313751
3401,LONGERENONG,-36.68413291,142.3445593
3559,GOBARUP,-36.67769551,144.8712631
3673,BENALLA,-36.669929,146.062514
3673,BROKEN CREEK,-36.669929,146.062514
3673,GOOMALIBEE,-36.669929,146.062514
3673,KILFEERA,-36.669929,146.062514
3673,LAKE MOKOAN,-36.669929,146.062514
3673,LIMA,-36.669929,146.062514
3673,LIMA EAST,-36.669929,146.062514
3673,LIMA SOUTH,-36.669929,146.062514
3673,LURG,-36.669929,146.062514
3673,MOLYULLAH,-36.669929,146.062514
3673,MOORNGAG,-36.669929,146.062514
3673,SAMARIA,-36.669929,146.062514
3673,SWANPOOL,-36.669929,146.062514
3673,TATONG,-36.669929,146.062514
3673,UPOTIPOTPON,-36.669929,146.062514
3673,UPPER LURG,-36.669929,146.062514
3673,UPPER RYANS CREEK,-36.669929,146.062514
3673,WINTON,-36.669929,146.062514
3673,WINTON NORTH,-36.669929,146.062514
3409,GRASS FLAT,-36.667303,141.89695
3409,NATIMUK,-36.667303,141.89695
3387,MARNOO,-36.666391,142.876262
3412,GOROKE,-36.658804,141.366071
3477,MARNOO EAST,-36.65690656,142.9563966
3556,CALIFORNIA GULLY,-36.656422,144.178282
3556,CAMPBELLS FOREST,-36.656422,144.178282
3556,COMET HILL,-36.656422,144.178282
3556,EAGLEHAWK,-36.656422,144.178282
3556,EAGLEHAWK NORTH,-36.656422,144.178282
3556,JACKASS FLAT,-36.656422,144.178282
3556,MYERS FLAT,-36.656422,144.178282
3556,SAILORS GULLY,-36.656422,144.178282
3556,SEBASTIAN,-36.656422,144.178282
3556,WHIPSTICK,-36.656422,144.178282
3556,WOODVALE,-36.656422,144.178282
3739,EUROBIN,-36.641016,146.864194
3701,DARTMOUTH,-36.638769,147.476819
3701,ESKDALE,-36.638769,147.476819
3701,FERNVALE,-36.638769,147.476819
3701,GRANITE FLAT,-36.638769,147.476819
3701,GRANYA,-36.638769,147.476819
3701,MITTA MITTA,-36.638769,147.476819
3701,SHELLEY,-36.638769,147.476819
3701,TALLANGATTA VALLEY,-36.638769,147.476819
3557,BARNADOWN,-36.63511,144.576787
3557,FOSTERVILLE,-36.63511,144.576787
3557,GOORNONG,-36.63511,144.576787
3557,MUSKERRY,-36.63511,144.576787
3557,MUSKERRY EAST,-36.63511,144.576787
3669,BOHO,-36.625333,145.708668
3669,BOHO SOUTH,-36.625333,145.708668
3669,CREEK JUNCTION,-36.625333,145.708668
3669,EARLSTON,-36.625333,145.708668
3669,GOWANGARDIE,-36.625333,145.708668
3669,KOONDA,-36.625333,145.708668
3669,MARRAWEENEY,-36.625333,145.708668
3669,TAMLEUGH,-36.625333,145.708668
3669,TAMLEUGH NORTH,-36.625333,145.708668
3669,VIOLET TOWN,-36.625333,145.708668
3670,BADDAGINNIE,-36.623748,145.852449
3670,TARNOOK,-36.623748,145.852449
3670,WARRENBAYNE,-36.623748,145.852449
3737,HAVILAH,-36.623195,146.8967591
3477,GRAYS BRIDGE,-36.61840529,142.8997503
3399,JUNG,-36.608521,142.357023
3399,LONGERENONG,-36.608521,142.357023
3516,BRIDGEWATER,-36.607616,144.041722
3516,BRIDGEWATER NORTH,-36.607616,144.041722
3516,BRIDGEWATER ON LODDON,-36.607616,144.041722
3516,DERBY,-36.607616,144.041722
3516,LEICHARDT,-36.607616,144.041722
3516,YARRABERB,-36.607616,144.041722
3409,DUCHEMBEGARRA,-36.60694604,141.9140027
3551,CREEK VIEW,-36.59845103,144.6456354
3388,BANYENA,-36.597861,142.693946
3388,RUPANYUP,-36.597861,142.693946
3707,TOM GROGGIN,-36.59561902,148.0805746
3738,OVENS,-36.587922,146.75397
3477,YORK PLAINS,-36.58743626,142.9166939
3707,BIGGARA,-36.586316,148.037958
3707,COLAC COLAC,-36.586316,148.037958
3707,CORRYONG,-36.586316,148.037958
3707,THOWGLA VALLEY,-36.586316,148.037958
3707,TOWONG,-36.586316,148.037958
3707,TOWONG UPPER,-36.586316,148.037958
3390,KEWELL,-36.583744,142.487468
3390,MURTOA,-36.583744,142.487468
3707,NARIEL VALLEY,-36.58238379,147.9286148
3610,DHURRINGILE,-36.577628,145.229349
3610,MOORILIM,-36.577628,145.229349
3610,MURCHISON,-36.577628,145.229349
3610,MURCHISON EAST,-36.577628,145.229349
3610,MURCHISON NORTH,-36.577628,145.229349
3401,JUNG,-36.57669756,142.3388059
3612,MOORA,-36.575936,145.019312
3612,RUSHWORTH,-36.575936,145.019312
3612,WANALTA,-36.575936,145.019312
3612,WARANGA,-36.575936,145.019312
3612,WHROO,-36.575936,145.019312
3559,AVONMORE,-36.570077,144.805307
3559,COLBINABBIN,-36.570077,144.805307
3559,COROP,-36.570077,144.805307
3559,LYNDALE,-36.570077,144.805307
3559,MAYREEF,-36.570077,144.805307
3559,RUNNYMEDE,-36.570077,144.805307
3675,BOWEYA,-36.565078,146.266835
3675,BOWEYA NORTH,-36.565078,146.266835
3675,GLENROWAN,-36.565078,146.266835
3675,GLENROWAN WEST,-36.565078,146.266835
3675,GRETA,-36.565078,146.266835
3675,GRETA SOUTH,-36.565078,146.266835
3675,GRETA WEST,-36.565078,146.266835
3675,HANSONVILLE,-36.565078,146.266835
3675,MOUNT BRUNO,-36.565078,146.266835
3675,TAMINICK,-36.565078,146.266835
8004,ST KILDA ROAD,-36.5587997,145.4689942
3672,BENALLA,-36.554936,145.977761
3672,BENALLA WEST,-36.554936,145.977761
3737,ABBEYARD,-36.554037,146.82759
3737,BARWIDGEE,-36.554037,146.82759
3737,BUFFALO RIVER,-36.554037,146.82759
3737,DANDONGADALE,-36.554037,146.82759
3737,GAPSTED,-36.554037,146.82759
3737,HAVILLAH,-36.554037,146.82759
3737,MERRIANG,-36.554037,146.82759
3737,MERRIANG SOUTH,-36.554037,146.82759
3737,MUDGEGONGA,-36.554037,146.82759
3737,MYRTLEFORD,-36.554037,146.82759
3737,NUG NUG,-36.554037,146.82759
3737,ROSEWHITE,-36.554037,146.82759
3612,WARANGA SHORES,-36.54807055,145.0911963
3558,RUNNYMEDE,-36.54452949,144.6702395
3632,SHEPPARTON,-36.544462,145.603242
3559,BURRAMBOOT,-36.53002718,144.8317218
3401,WAIL,-36.52995528,142.0867071
3735,BOWMANS FOREST,-36.515712,146.603574
3735,WHOROULY,-36.515712,146.603574
3735,WHOROULY EAST,-36.515712,146.603574
3735,WHOROULY SOUTH,-36.515712,146.603574
3558,BURNEWANG,-36.51553,144.638363
3558,COROP WEST,-36.51553,144.638363
3558,CREEK VIEW,-36.51553,144.638363
3558,ELMORE,-36.51553,144.638363
3558,HUNTER,-36.51553,144.638363
3570,AUCHMORE,-36.515303,144.28053
3570,DRUMMARTIN,-36.515303,144.28053
3570,KAMAROOKA,-36.515303,144.28053
3570,NEILBOROUGH,-36.515303,144.28053
3570,RAYWOOD,-36.515303,144.28053
3570,SUMMERFIELD,-36.515303,144.28053
3669,UPOTIPOTPON,-36.49668169,145.8003272
3616,WARANGA,-36.49176389,145.068314
3614,TOOLAMBA WEST,-36.48360219,145.2688853
3517,BEARS LAGOON,-36.483116,143.886832
3517,BRENANAH,-36.483116,143.886832
3517,BULLABUL,-36.483116,143.886832
3517,GLENALBYN,-36.483116,143.886832
3517,INGLEWOOD,-36.483116,143.886832
3517,JARKLIN,-36.483116,143.886832
3517,KINGOWER,-36.483116,143.886832
3517,KURTING,-36.483116,143.886832
3517,POWLETT PLAINS,-36.483116,143.886832
3517,RHEOLA,-36.483116,143.886832
3517,SALISBURY WEST,-36.483116,143.886832
3517,SERPENTINE,-36.483116,143.886832
3614,TOOLAMBA,-36.479193,145.30098
3518,BERRIMAL,-36.474937,143.586215
3518,BORUNG,-36.474937,143.586215
3518,FENTONS CREEK,-36.474937,143.586215
3518,FERNIHURST,-36.474937,143.586215
3518,FIERY FLAT,-36.474937,143.586215
3518,KURRACA,-36.474937,143.586215
3518,KURRACA WEST,-36.474937,143.586215
3518,MYSIA,-36.474937,143.586215
3518,NINE MILE,-36.474937,143.586215
3518,RICHMOND PLAINS,-36.474937,143.586215
3518,SKINNERS FLAT,-36.474937,143.586215
3518,WEDDERBURN,-36.474937,143.586215
3518,WEDDERBURN JUNCTION,-36.474937,143.586215
3518,WEHLA,-36.474937,143.586215
3518,WOOLSHED FLAT,-36.474937,143.586215
3518,WOOSANG,-36.474937,143.586215
3616,COOMA,-36.464118,145.145217
3616,GILLIESTON,-36.464118,145.145217
3616,GIRGARRE EAST,-36.464118,145.145217
3616,HARSTON,-36.464118,145.145217
3616,MOOROOPNA NORTH WEST,-36.464118,145.145217
3616,TATURA,-36.464118,145.145217
3616,TATURA EAST,-36.464118,145.145217
3616,TOOLAMBA WEST,-36.464118,145.145217
3623,CARAG CARAG,-36.461381,144.976813
3623,STANHOPE,-36.461381,144.976813
3623,STANHOPE SOUTH,-36.461381,144.976813
3736,MYRTLEFORD,-36.455136,146.479489
3392,MINYIP,-36.430131,142.677858
3392,SHEEP HILLS,-36.430131,142.677858
3691,KERGUNYAH SOUTH,-36.42880742,147.0284111
3631,ARCADIA,-36.428694,145.526693
3631,ARCADIA SOUTH,-36.428694,145.526693
3631,COSGROVE,-36.428694,145.526693
3631,COSGROVE SOUTH,-36.428694,145.526693
3631,GRAHAMVALE,-36.428694,145.526693
3631,KARRAMOMUS,-36.428694,145.526693
3631,KIALLA,-36.428694,145.526693
3631,KIALLA EAST,-36.428694,145.526693
3631,KIALLA WEST,-36.428694,145.526693
3631,LEMNOS,-36.428694,145.526693
3631,ORRVALE,-36.428694,145.526693
3631,PINE LODGE,-36.428694,145.526693
3631,SHEPPARTON EAST,-36.428694,145.526693
3631,SHEPPARTON NORTH,-36.428694,145.526693
3631,TAMLEUGH WEST,-36.428694,145.526693
3617,BYRNESIDE,-36.423823,145.178369
3749,BRUARONG,-36.42031113,146.8638108
3725,BOXWOOD,-36.414359,145.937326
3725,CHESNEY VALE,-36.414359,145.937326
3725,GOORAMBAT,-36.414359,145.937326
3725,MAJOR PLAINS,-36.414359,145.937326
3725,STEWARTON,-36.414359,145.937326
3420,LILLIMUR,-36.41273,141.017332
3420,SERVICETON,-36.41273,141.017332
3420,TELOPEA DOWNS,-36.41273,141.017332
3624,GIRGARRE,-36.410186,144.965763
3520,KINYPANIAL,-36.405771,143.810786
3520,KORONG VALE,-36.405771,143.810786
3520,SOUTH KINYPANIAL,-36.405771,143.810786
3561,BONN,-36.40526528,144.7181934
3701,TALLANDOON,-36.40132656,147.2207049
3414,ANTWERP,-36.388628,142.093883
3414,DIMBOOLA,-36.388628,142.093883
3414,TARRANYURK,-36.388628,142.093883
3647,DOOKIE COLLEGE,-36.385331,145.704473
3671,BENALLA,-36.385144,145.420691
3620,KYABRAM SOUTH,-36.38493145,145.0857804
3630,BENARCH,-36.380853,145.403176
3630,BRANDITT,-36.380853,145.403176
3630,CANIAMBO,-36.380853,145.403176
3630,COLLIVER,-36.380853,145.403176
3630,DUNKIRK,-36.380853,145.403176
3630,SHEPPARTON,-36.380853,145.403176
3630,SHEPPARTON SOUTH,-36.380853,145.403176
3618,MERRIGUM,-36.37708,145.125014
3571,DINGEE,-36.36819,144.206865
3571,KAMAROOKA NORTH,-36.36819,144.206865
3571,POMPAPIEL,-36.36819,144.206865
3571,TANDARRA,-36.36819,144.206865
3571,YALLOOK,-36.36819,144.206865
3747,BAARMUTHA,-36.361056,146.725705
3747,BEECHWORTH,-36.361056,146.725705
3747,HURDLE FLAT,-36.361056,146.725705
3747,MURMUNGEE,-36.361056,146.725705
3747,SILVER CREEK,-36.361056,146.725705
3747,STANLEY,-36.361056,146.725705
3747,WOOLSHED,-36.361056,146.725705
3747,WOORAGEE,-36.361056,146.725705
3677,APPIN PARK,-36.358017,146.330564
3677,WANGARATTA,-36.358017,146.330564
3677,WANGARATTA WEST,-36.358017,146.330564
3677,YARRUNGA,-36.358017,146.330564
3749,YACKANDANDAH,-36.357399,146.842075
3415,MIRAM,-36.352459,141.339702
3415,YARRUNGA,-36.352459,141.339702
3392,BOOLITE,-36.34199038,142.6792298
3676,WANGARATTA,-36.341245,146.338612
3700,BULLIOH,-36.335898,147.35527
3700,JARVIS CREEK,-36.335898,147.35527
3700,TALLANGATTA,-36.335898,147.35527
3700,TALLANGATTA EAST,-36.335898,147.35527
3726,BUNGEET,-36.332254,145.960209
3726,BUNGEET WEST,-36.332254,145.960209
3726,DEVENISH,-36.332254,145.960209
3726,THOONA,-36.332254,145.960209
3701,TALLANGATTA SOUTH,-36.32413828,147.2815733
3705,CUDGEWA,-36.322884,147.769911
3705,NARIEL VALLEY,-36.322884,147.769911
3480,GIL GIL,-36.32166578,143.0409276
3561,BALLENDELLA,-36.321109,144.709543
3561,BAMAWM,-36.321109,144.709543
3561,BAMAWM EXTENSION,-36.321109,144.709543
3561,DIGGORA,-36.321109,144.709543
3561,DIGGORA WEST,-36.321109,144.709543
3561,FAIRY DELL,-36.321109,144.709543
3561,NANNEELLA,-36.321109,144.709543
3561,ROCHESTER,-36.321109,144.709543
3561,ROCHESTER WEST,-36.321109,144.709543
3561,THE SETTLEMENT,-36.321109,144.709543
3561,TIMMERING,-36.321109,144.709543
3691,OSBORNES FLAT,-36.32062937,146.9091366
3480,JEFFCOTT,-36.31902453,143.1383586
3746,ELDORADO,-36.31396,146.51767
3480,AREEGRA,-36.31227,142.968057
3480,BANYENONG,-36.31227,142.968057
3480,BOOLITE,-36.31227,142.968057
3480,CARRON,-36.31227,142.968057
3480,COPE COPE,-36.31227,142.968057
3480,CORACK,-36.31227,142.968057
3480,CORACK EAST,-36.31227,142.968057
3480,DONALD,-36.31227,142.968057
3480,LAEN,-36.31227,142.968057
3480,LAEN EAST,-36.31227,142.968057
3480,LAEN NORTH,-36.31227,142.968057
3480,LAKE BULOKE,-36.31227,142.968057
3480,LAWLER,-36.31227,142.968057
3480,LITCHFIELD,-36.31227,142.968057
3480,RICH AVON,-36.31227,142.968057
3480,RICH AVON EAST,-36.31227,142.968057
3480,RICH AVON WEST,-36.31227,142.968057
3480,SWANWATER WEST,-36.31227,142.968057
3633,CONGUPNA,-36.307936,145.46296
3695,CHARLEROI,-36.304285,147.123674
3695,HUON,-36.304285,147.123674
3695,RED BLUFF,-36.304285,147.123674
3695,SANDY CREEK,-36.304285,147.123674
3629,ARDMONA,-36.287306,145.260653
3629,COOMBOONA,-36.287306,145.260653
3629,MOOROOPNA,-36.287306,145.260653
3629,MOOROOPNA NORTH,-36.287306,145.260653
3629,UNDERA,-36.287306,145.260653
3620,KYABRAM,-36.284584,145.082735
3620,LANCASTER,-36.284584,145.082735
3620,MOUNT SCOBIE,-36.284584,145.082735
3620,ST GERMAINS,-36.284584,145.082735
3620,TARIPTA,-36.284584,145.082735
3620,WYUNA,-36.284584,145.082735
3620,WYUNA EAST,-36.284584,145.082735
3525,BARRAKEE,-36.2835,143.364316
3525,BUCKRABANYULE,-36.2835,143.364316
3525,CHARLTON,-36.2835,143.364316
3525,JEFFCOTT,-36.2835,143.364316
3525,JEFFCOTT NORTH,-36.2835,143.364316
3525,LAKE MARMAL,-36.2835,143.364316
3525,NAREEWILLOCK,-36.2835,143.364316
3525,TEDDYWADDY,-36.2835,143.364316
3525,TEDDYWADDY WEST,-36.2835,143.364316
3525,TERRAPPEE,-36.2835,143.364316
3525,WOOROONOOK,-36.2835,143.364316
3525,WYCHITELLA,-36.2835,143.364316
3525,WYCHITELLA NORTH,-36.2835,143.364316
3525,YEUNGROON,-36.2835,143.364316
3525,YEUNGROON EAST,-36.2835,143.364316
3621,KYVALLEY,-36.28071633,145.0055758
3572,MILLOO,-36.266642,144.257135
3572,PIAVELLA,-36.266642,144.257135
3572,PRAIRIE,-36.266642,144.257135
3572,TENNYSON,-36.266642,144.257135
3480,JEFFCOTT NORTH,-36.26284609,143.0680468
3393,AILSA,-36.257725,142.387341
3393,ANGIP,-36.257725,142.387341
3393,AUBREY,-36.257725,142.387341
3393,BANGERANG,-36.257725,142.387341
3393,CANNUM,-36.257725,142.387341
3393,CRYMELON,-36.257725,142.387341
3393,KELLALAC,-36.257725,142.387341
3393,LAH,-36.257725,142.387341
3393,WARRACKNABEAL,-36.257725,142.387341
3393,WILKUR,-36.257725,142.387341
3393,WILLENABRINA,-36.257725,142.387341
3563,LOCKINGTON,-36.256251,144.515589
3646,DOOKIE,-36.247446,145.704042
3646,MOUNT MAJOR,-36.247446,145.704042
3646,NALINGA,-36.247446,145.704042
3646,WATTVILLE,-36.247446,145.704042
3646,YABBA NORTH,-36.247446,145.704042
3646,YABBA SOUTH,-36.247446,145.704042
3646,YOUANMITE,-36.247446,145.704042
3646,WAGGARANDALL,-36.24491655,145.7669016
3727,ALMONDS,-36.242443,145.957776
3727,LAKE ROWAN,-36.242443,145.957776
3727,PELLUEBLA,-36.242443,145.957776
3727,ST JAMES,-36.242443,145.957776
3727,WAGGARANDALL,-36.242443,145.957776
3727,YUNDOOL,-36.242443,145.957776
3622,CORNELIA CREEK,-36.231961,144.87573
3622,KOYUGA,-36.231961,144.87573
3622,STRATHALLAN,-36.231961,144.87573
3419,KANIVA,-36.226015,141.101929
3634,BUNBARTHA,-36.224186,145.440315
3634,INVERGORDON SOUTH,-36.224186,145.440315
3634,KATANDRA,-36.224186,145.440315
3634,KATANDRA WEST,-36.224186,145.440315
3634,MARIONVALE,-36.224186,145.440315
3634,MARUNGI,-36.224186,145.440315
3634,TALLYGAROOPNA,-36.224186,145.440315
3634,ZEERUST,-36.224186,145.440315
3525,GRANITE FLAT,-36.21412082,143.1316318
3621,KOYUGA SOUTH,-36.206055,144.961183
3621,KY VALLEY,-36.206055,144.961183
3621,KY WEST,-36.206055,144.961183
3621,TONGALA,-36.206055,144.961183
3621,YAMBUNA,-36.206055,144.961183
3701,OLD TALLANGATTA,-36.20193851,147.249954
3527,TEDDYWADDY WEST,-36.19667451,143.2226665
3527,TEDDYWADDY,-36.19508429,143.3240251
3565,KOTTA,-36.182336,144.511713
3564,BAMAWM EXTENSION,-36.18096611,144.6014151
3683,CHILTERN,-36.180787,146.604622
3683,CHILTERN VALLEY,-36.180787,146.604622
3683,CORNISHTOWN,-36.180787,146.604622
3683,INDIGO,-36.180787,146.604622
3682,BORALMA,-36.174271,146.428656
3682,LILLIPUT,-36.174271,146.428656
3682,NORONG,-36.174271,146.428656
3682,SPRINGHURST,-36.174271,146.428656
3482,MASSEY,-36.17028,142.766588
3482,MORTON PLAINS,-36.17028,142.766588
3482,WARMUR,-36.17028,142.766588
3482,WATCHEM,-36.17028,142.766588
3482,WATCHEM WEST,-36.17028,142.766588
3564,CAMPASPE WEST,-36.168997,144.728806
3564,ECHUCA,-36.168997,144.728806
3564,ECHUCA EAST,-36.168997,144.728806
3564,ECHUCA SOUTH,-36.168997,144.728806
3564,ECHUCA VILLAGE,-36.168997,144.728806
3564,ECHUCA WEST,-36.168997,144.728806
3564,KANYAPELLA,-36.168997,144.728806
3564,MCEVOYS,-36.168997,144.728806
3564,PATHO,-36.168997,144.728806
3564,PATHO WEST,-36.168997,144.728806
3564,ROSLYNMEAD,-36.168997,144.728806
3564,SIMMIE,-36.168997,144.728806
3564,WHARPARILLA,-36.168997,144.728806
3525,CHIRRIP,-36.16805671,143.1280301
3573,CALIVIL,-36.164865,144.297958
3573,MITIAMO,-36.164865,144.297958
3573,PINE GROVE,-36.164865,144.297958
3573,PINE GROVE EAST,-36.164865,144.297958
3573,TERRICK TERRICK EAST,-36.164865,144.297958
3694,BANDIANA,-36.150678,146.919493
3694,BANDIANA MILPO,-36.150678,146.919493
3700,GEORGES CREEK,-36.15063277,147.2581548
3728,BOOMAHNOOMOONAH,-36.148922,145.959015
3728,TUNGAMAH,-36.148922,145.959015
3728,WILBY,-36.148922,145.959015
3728,YOUARANG,-36.148922,145.959015
3635,KAARIMBA,-36.142596,145.30827
3635,MUNDOONA,-36.142596,145.30827
3635,WUNGHNU,-36.142596,145.30827
3691,BANDIANA,-36.13591208,146.9307559
3690,WEST WODONGA,-36.135717,146.864361
3690,WODONGA,-36.135717,146.864361
3690,WODONGA PLAZA,-36.135717,146.864361
3704,KOETONG,-36.132613,147.49344
3423,JEPARIT,-36.13191,141.940764
3423,LAKE HINDMARSH,-36.13191,141.940764
3576,DURHAM OX,-36.128029,143.917515
3688,BARNAWARTHA,-36.119195,146.717193
3688,BARNAWARTHA NORTH,-36.119195,146.717193
3688,INDIGO UPPER,-36.119195,146.717193
3688,INDIGO VALLEY,-36.119195,146.717193
3636,DRUMANURE,-36.093878,145.479471
3636,INVERGORDON,-36.093878,145.479471
3636,NARING,-36.093878,145.479471
3636,NUMURKAH,-36.093878,145.479471
3391,BRIM,-36.092132,142.446015
3691,BARNAWARTHA NORTH,-36.08708986,146.7480309
3649,KATAMATITE,-36.082665,145.688671
3649,KATAMATITE EAST,-36.082665,145.688671
3537,BARRAPORT,-36.079335,143.744455
3537,BARRAPORT WEST,-36.079335,143.744455
3537,BOORT,-36.079335,143.744455
3537,CANARY ISLAND,-36.079335,143.744455
3537,CATUMNAL,-36.079335,143.744455
3537,GREDGWIN,-36.079335,143.744455
3537,LEAGHUR,-36.079335,143.744455
3537,MINMINDIE,-36.079335,143.744455
3537,YANDO,-36.079335,143.744455
3418,BROUGHTON,-36.074144,141.538074
3418,GERANG GERUNG,-36.074144,141.538074
3418,GLENLEE,-36.074144,141.538074
3418,KIATA,-36.074144,141.538074
3418,LAWLOIT,-36.074144,141.538074
3418,LITTLE DESERT,-36.074144,141.538074
3418,LORQUON,-36.074144,141.538074
3418,NETHERBY,-36.074144,141.538074
3418,NHILL,-36.074144,141.538074
3418,YANAC,-36.074144,141.538074
3730,BURRAMINE SOUTH,-36.07318482,145.856688
3527,BUNGULUKE,-36.07096,143.241334
3527,DUMOSA,-36.07096,143.241334
3527,GLENLOTH,-36.07096,143.241334
3527,GLENLOTH EAST,-36.07096,143.241334
3527,THALIA,-36.07096,143.241334
3527,TOWANINNY,-36.07096,143.241334
3527,TOWANINNY SOUTH,-36.07096,143.241334
3527,WYCHEPROOF,-36.07096,143.241334
3527,WYCHEPROOF SOUTH,-36.07096,143.241334
3708,TINTALDRA,-36.070928,147.942058
3562,TORRUMBARRY,-36.062544,144.46276
3685,BOORHAMAN NORTH,-36.056449,146.470638
3685,BRIMIN,-36.056449,146.470638
3685,BROWNS PLAINS,-36.056449,146.470638
3685,DUGAYS BRIDGE,-36.056449,146.470638
3685,GOORAMADDA,-36.056449,146.470638
3685,GREAT SOUTHERN,-36.056449,146.470638
3685,LAKE MOODEMERE,-36.056449,146.470638
3685,NORONG CENTRAL,-36.056449,146.470638
3685,PRENTICE NORTH,-36.056449,146.470638
3685,RUTHERGLEN,-36.056449,146.470638
3575,BALD ROCK,-36.055725,144.159028
3575,GLADFIELD,-36.055725,144.159028
3575,JUNGABURRA,-36.055725,144.159028
3575,LODDON VALE,-36.055725,144.159028
3575,MINCHA,-36.055725,144.159028
3575,MOLOGA,-36.055725,144.159028
3575,PYRAMID HILL,-36.055725,144.159028
3575,SYLVATERRE,-36.055725,144.159028
3575,TERRICK TERRICK,-36.055725,144.159028
3575,YARRAWALLA,-36.055725,144.159028
3730,BATHUMI,-36.051782,145.974755
3730,BOOSEY,-36.051782,145.974755
3730,BUNDALONG,-36.051782,145.974755
3730,BUNDALONG SOUTH,-36.051782,145.974755
3730,ESMOND,-36.051782,145.974755
3730,TELFORD,-36.051782,145.974755
3730,YARRAWONGA,-36.051782,145.974755
3730,YARRAWONGA SOUTH,-36.051782,145.974755
3637,WAAIA,-36.050686,145.329026
3637,YALCA,-36.050686,145.329026
3709,BURROWYE,-36.035908,147.667373
3709,GUYS FOREST,-36.035908,147.667373
3709,WALWA,-36.035908,147.667373
3638,KOTUPNA,-36.03202,145.246572
3638,NATHALIA,-36.03202,145.246572
3638,YIELIMA,-36.03202,145.246572
3691,ALLANS FLAT,-36.027154,147.880991
3691,BARANDUDA,-36.027154,147.880991
3691,BELLBRIDGE,-36.027154,147.880991
3691,BERRINGAMA,-36.027154,147.880991
3691,BETHANGA,-36.027154,147.880991
3691,BONEGILLA,-36.027154,147.880991
3691,BUNGIL,-36.027154,147.880991
3691,CASTLE CREEK,-36.027154,147.880991
3691,CORAL BANK,-36.027154,147.880991
3691,DEDERANG,-36.027154,147.880991
3691,EBDEN,-36.027154,147.880991
3691,GATEWAY ISLAND,-36.027154,147.880991
3691,GLEN CREEK,-36.027154,147.880991
3691,GUNDOWRING,-36.027154,147.880991
3691,HUME WEIR,-36.027154,147.880991
3691,HUON CREEK,-36.027154,147.880991
3691,KANCOONA,-36.027154,147.880991
3691,KANCOONA SOUTH,-36.027154,147.880991
3691,KERGUNYAH,-36.027154,147.880991
3691,KIEWA,-36.027154,147.880991
3691,KILLARA,-36.027154,147.880991
3691,LENEVA,-36.027154,147.880991
3691,LONE PINE,-36.027154,147.880991
3691,LUCYVALE,-36.027154,147.880991
3691,MONGANS BRIDGE,-36.027154,147.880991
3691,MOUNT ALFRED,-36.027154,147.880991
3691,RUNNING CREEK,-36.027154,147.880991
3691,STAGHORN FLAT,-36.027154,147.880991
3691,TALGARNO,-36.027154,147.880991
3691,TANGAMBALANGA,-36.027154,147.880991
3691,THOLOGOLONG,-36.027154,147.880991
3691,UPPER GUNDOWRING,-36.027154,147.880991
3691,WODONGA FORWARD,-36.027154,147.880991
3639,BARMAH,-36.021295,145.047253
3639,LOWER MOIRA,-36.021295,145.047253
3639,PICOLA,-36.021295,145.047253
3639,PICOLA WEST,-36.021295,145.047253
3687,CARLYLE,-36.018771,146.415927
3687,WAHGUNYAH,-36.018771,146.415927
3709,PINE MOUNTAIN,-36.01189247,147.8327575
3640,KATUNGA,-36.00978,145.486015
3730,BURRAMINE,-36.00973295,145.882739
3685,CARLYLE,-36.00913619,146.4848179
3527,JERUK,-36.00182588,143.4513232
3709,MOUNT ALFRED,-36.00067772,147.6313053
3395,REEDY DAM,-35.9579551,142.6453073
3527,NINYEUNOOK,-35.95739202,143.4213318
3643,COBRAM,-35.955363,145.631874
3566,GUNBOWER,-35.945748,144.383334
3644,COBRAM,-35.945353,145.632682
3644,COBRAM EAST,-35.945353,145.632682
3644,KOONOOMOO,-35.945353,145.632682
3644,MUCKATAH,-35.945353,145.632682
3644,YARROWEYAH,-35.945353,145.632682
3567,HORFIELD,-35.931669,144.262942
3567,LEITCHVILLE,-35.931669,144.262942
3395,BEULAH,-35.918885,142.441984
3395,KENMARE,-35.918885,142.441984
3483,BALLAPUR,-35.901765,142.890804
3483,BIRCHIP,-35.901765,142.890804
3483,BIRCHIP WEST,-35.901765,142.890804
3483,CURYO,-35.901765,142.890804
3483,JIL JIL,-35.901765,142.890804
3483,KARYRIE,-35.901765,142.890804
3483,KINNABULLA,-35.901765,142.890804
3483,MARLBED,-35.901765,142.890804
3483,NARRAPORT,-35.901765,142.890804
3483,REEDY DAM,-35.901765,142.890804
3483,WHIRILY,-35.901765,142.890804
3641,BEARII,-35.89718,145.428306
3641,MYWEE,-35.89718,145.428306
3641,STRATHMERTON,-35.89718,145.428306
3641,ULUPNA,-35.89718,145.428306
3540,CANNIE,-35.89277,143.45008
3540,NINYEUNOOK,-35.89277,143.45008
3540,OAKVALE,-35.89277,143.45008
3540,QUAMBATOOK,-35.89277,143.45008
3395,ROSEBERY,-35.83347402,142.4214713
3529,KALPIENUNG,-35.824259,143.232677
3529,NULLAWIL,-35.824259,143.232677
3568,BURKES BRIDGE,-35.809462,144.184089
3568,COHUNA,-35.809462,144.184089
3568,CULLEN,-35.809462,144.184089
3568,DALTONS BRIDGE,-35.809462,144.184089
3568,GANNAWARRA,-35.809462,144.184089
3568,KEELY,-35.809462,144.184089
3568,MACORNA NORTH,-35.809462,144.184089
3568,MCMILLANS,-35.809462,144.184089
3568,MEAD,-35.809462,144.184089
3568,MINCHA WEST,-35.809462,144.184089
3568,WEE WEE RUP,-35.809462,144.184089
3579,APPIN,-35.767974,143.769445
3579,APPIN SOUTH,-35.767974,143.769445
3579,BAEL BAEL,-35.767974,143.769445
3579,BENJEROOP,-35.767974,143.769445
3579,BUDGERUM EAST,-35.767974,143.769445
3579,CAPELS CROSSING,-35.767974,143.769445
3579,DINGWALL,-35.767974,143.769445
3579,EAST YEOBURN,-35.767974,143.769445
3579,FAIRLEY,-35.767974,143.769445
3579,GONN CROSSING,-35.767974,143.769445
3579,KERANG,-35.767974,143.769445
3579,KERANG EAST,-35.767974,143.769445
3579,KOROOP,-35.767974,143.769445
3579,LAKE MERAN,-35.767974,143.769445
3579,MACORNA,-35.767974,143.769445
3579,MEERING WEST,-35.767974,143.769445
3579,MILNES BRIDGE,-35.767974,143.769445
3579,MURRABIT,-35.767974,143.769445
3579,MURRABIT WEST,-35.767974,143.769445
3579,MYALL,-35.767974,143.769445
3579,MYSTIC PARK,-35.767974,143.769445
3579,NORMANVILLE,-35.767974,143.769445
3579,PINE VIEW,-35.767974,143.769445
3579,REEDY LAKE,-35.767974,143.769445
3579,SANDHILL LAKE,-35.767974,143.769445
3579,TEAL POINT,-35.767974,143.769445
3579,TRAGOWEL,-35.767974,143.769445
3579,WANDELLA,-35.767974,143.769445
3579,WESTBY,-35.767974,143.769445
3542,TITTYBONG,-35.75270861,143.363426
3530,SUTTON,-35.73285433,142.9735632
3424,ALBACUTYA,-35.727789,141.930872
3424,RAINBOW,-35.727789,141.930872
3424,YAAPEET,-35.727789,141.930872
3396,HOPETOUN,-35.7157,142.329159
3396,HOPEVALE,-35.7157,142.329159
3396,YARTO,-35.7157,142.329159
3485,BANYAN,-35.711533,142.671962
3485,WATCHUPGA,-35.711533,142.671962
3485,WILLANGIE,-35.711533,142.671962
3485,WOOMELANG,-35.711533,142.671962
3530,CULGOA,-35.701439,143.152747
3530,WARNE,-35.701439,143.152747
3542,COKUM,-35.700788,143.406398
3542,LALBERT,-35.700788,143.406398
3542,TITYBONG,-35.700788,143.406398
3530,WANGIE,-35.691824,143.2608071
3580,KOONDROOK,-35.639761,144.094672
3581,BEAUCHAMP,-35.628333,143.78521
3581,LAKE CHARM,-35.628333,143.78521
3579,BEAUCHAMP,-35.62576908,143.6250386
3490,BIG DESERT,-35.62103426,141.4849679
3531,BERRIWILLOCK,-35.616408,142.943814
3531,BOIGBEAT,-35.616408,142.943814
3531,SPRINGFIELD,-35.616408,142.943814
3544,MURNUNGIN,-35.61436535,143.2411218
3544,SPRINGFIELD,-35.57476437,143.1143327
3533,MYALL,-35.53651946,142.7557043
3544,CHINANGIN,-35.51717216,143.1754083
3487,LASCELLES,-35.515627,142.616079
3583,TRESCO,-35.509635,143.66458
3544,GOWANFORD,-35.487989,143.14445
3544,ULTIMA,-35.487989,143.14445
3544,WAITCHIE,-35.487989,143.14445
3488,TURRIFF,-35.47089941,142.4522756
3488,SPEED,-35.435634,142.427118
3488,TURRIFF EAST,-35.435634,142.427118
3491,PATCHEWOLLOCK,-35.434099,142.218273
3544,ULTIMA EAST,-35.43230862,143.3741381
3584,LAKE BOGA,-35.431026,143.637617
3584,TRESCO WEST,-35.431026,143.637617
3512,CARINA,-35.39199,141.121226
3512,MURRAYVILLE,-35.39199,141.121226
3533,BIMBOURIE,-35.384557,142.839304
3533,LAKE TYRRELL,-35.384557,142.839304
3533,MITTYACK,-35.384557,142.839304
3533,NANDALY,-35.384557,142.839304
3533,NINDA,-35.384557,142.839304
3533,NYARRIN,-35.384557,142.839304
3533,SEA LAKE,-35.384557,142.839304
3533,TYRRELL,-35.384557,142.839304
3533,TYRRELL DOWNS,-35.384557,142.839304
3533,STRATEN,-35.37975184,142.5763552
3585,SWAN HILL WEST,-35.35616986,143.3980395
3585,CASTLE DONNINGTON,-35.348388,143.336906
3585,CHILLINGOLLAH,-35.348388,143.336906
3585,FISH POINT,-35.348388,143.336906
3585,GOSCHEN,-35.348388,143.336906
3585,KUNAT,-35.348388,143.336906
3585,MEATIAN,-35.348388,143.336906
3585,NOWIE,-35.348388,143.336906
3585,NYRRABY,-35.348388,143.336906
3585,PIRA,-35.348388,143.336906
3585,SPEEWA,-35.348388,143.336906
3585,SWAN HILL,-35.348388,143.336906
3585,SWAN HILL PIONEER,-35.348388,143.336906
3585,WINLATON,-35.348388,143.336906
3489,TEMPY,-35.332477,142.425302
3533,TYENNA,-35.32433058,142.5758665
3588,WOORINEN SOUTH,-35.29429,143.470325
3585,POLISBET,-35.27926115,143.1473395
3533,PIER MILAN,-35.23730832,142.6920283
3590,BEVERFORD,-35.235708,143.493525
3589,WOORINEN,-35.228436,143.441248
3589,WOORINEN NORTH,-35.228436,143.441248
3506,COWANGIE,-35.204199,141.385876
3595,NYAH WEST,-35.202752,143.351682
3591,VINIFERA,-35.202209,143.394092
3546,GERAHMIN,-35.17251379,142.79978
3509,LINGA,-35.155031,141.680385
3509,UNDERBOOL,-35.155031,141.680385
3490,MITTYACK,-35.15426089,142.6222683
3594,NYAH,-35.138155,143.346028
3596,MIRALIE,-35.123806,143.327682
3596,TOWAN,-35.123806,143.327682
3596,WOOD WOOD,-35.123806,143.327682
3512,PANITYA,-35.12099315,141.0200955
3507,WALPEUP,-35.120596,142.035659
3586,BULGA,-35.114021,143.792594
3586,MURRAWEE,-35.114021,143.792594
3586,MURRAYDALE,-35.114021,143.792594
3586,PENTAL ISLAND,-35.114021,143.792594
3586,TYNTYNDER,-35.114021,143.792594
3586,TYNTYNDER SOUTH,-35.114021,143.792594
3586,ULTIMA EAST,-35.114021,143.792594
3546,BOLTON,-35.060163,142.850456
3546,CHINKAPOOK,-35.060163,142.850456
3546,COCAMBA,-35.060163,142.850456
3546,MANANGATANG,-35.060163,142.850456
3546,TUROAR,-35.060163,142.850456
3546,WINNAMBOOL,-35.060163,142.850456
3597,KENLEY,-34.965359,143.189786
3597,KOOLOONONG,-34.965359,143.189786
3597,LAKE POWELL,-34.965359,143.189786
3597,NARRUNG,-34.965359,143.189786
3597,NATYA,-34.965359,143.189786
3597,PIANGIL,-34.965359,143.189786
3490,BOINKA,-34.911674,142.206711
3490,KULWIN,-34.911674,142.206711
3490,OUYEN,-34.911674,142.206711
3490,TORRITA,-34.911674,142.206711
3490,TUTYE,-34.911674,142.206711
3549,WANDOWN,-34.82232378,142.9427595
3549,ANNUELLO,-34.766049,142.820973
3549,BANNERTON,-34.766049,142.820973
3549,HAPPY VALLEY,-34.766049,142.820973
3549,LIPAROO,-34.766049,142.820973
3549,ROBINVALE,-34.766049,142.820973
3549,TOL TOL,-34.766049,142.820973
3549,WEMEN,-34.766049,142.820973
3599,BOUNDARY BEND,-34.729742,143.143231
3490,MURRAY-SUNSET,-34.70931565,141.4764416
3549,ROBINVALE IRRIGATION DISTRICT SECTION E,-34.664554,142.759585
3549,ROBINVALE IRRIGATION DISTRICT SECTION D,-34.636393,142.75566
3549,ROBINVALE IRRIGATION DISTRICT SECTION C,-34.626246,142.730687
3549,ROBINVALE IRRIGATION DISTRICT SECTION B,-34.612077,142.789595
3494,CARWARP,-34.486406,142.348315
3494,COLIGNAN,-34.486406,142.348315
3494,IRAAK,-34.486406,142.348315
3494,NANGILOC,-34.486406,142.348315
3496,MERINGUR,-34.389148,141.334798
3496,WERRIMULL,-34.386949,141.388479
3496,MERRINEE,-34.370179,141.801957
3496,RED CLIFFS,-34.307094,142.187995
3496,CARDROSS,-34.287804,142.144177
3496,SUNNYCLIFFS,-34.286644,142.186246
3496,CULLULLERAINE,-34.277724,141.592628
3501,HATTAH,-34.243279,142.100896
3501,KOORLONG,-34.243279,142.100896
3501,MILDURA CENTRE PLAZA,-34.243279,142.100896
3501,MILDURA SOUTH,-34.243279,142.100896
3501,NICHOLS POINT,-34.243279,142.100896
3498,IRYMPLE,-34.238385,142.172516
3500,MILDURA,-34.1931,142.154161
3500,MILDURA EAST,-34.1931,142.154161
3500,MILDURA WEST,-34.1931,142.154161
3496,MURRAY LOCK NO 9,-34.192418,141.597936
3505,BIRDWOODTON,-34.180532,142.004192
3505,CABARITA,-34.180532,142.004192
3505,MERBEIN,-34.180532,142.004192
3505,MERBEIN SOUTH,-34.180532,142.004192
3505,MERBEIN WEST,-34.180532,142.004192
3505,WARGAN,-34.180532,142.004192
3505,YELTA,-34.180532,142.004192
3496,NEDS CORNER,-34.130253,141.326064
3496,LINDSAY POINT,-34.089735,141.596797
3989,ST HELIER,49.1805,-2.10323
